{
  "type": "FeatureCollection",
  "features": [
    {
      "type": "Feature",
      "geometry": {
        "type": "Point",
        "coordinates": [
          25.931318,
          59.860195
        ]
      },
      "properties": {
        "event_id": "VWI-538011815-pipelines.3424",
        "event_type": "critical_infrastructure_proximity",
        "level": "elevated",
        "confidence": "low_medium",
        "vessel": {
          "mmsi": "538011815",
          "imo": "9743215",
          "name": "EUGENIA B",
          "callsign": "V7A3517",
          "categories": [
            "recent_russian_portcall_10d"
          ],
          "source": "AISStream"
        },
        "infrastructure": {
          "type": "pipeline",
          "reference_id": "pipelines.3424",
          "name": "NORD STREAM 2",
          "source": "EMODnet Human Activities",
          "source_typename": "emodnet:pipelines"
        },
        "signals": [
          "critical_infrastructure_proximity",
          "low_speed_near_infrastructure",
          "extended_presence_near_infrastructure",
          "voi_or_watchlist_context",
          "timestamp_quality_limited"
        ],
        "assessment": "Behaviour warrants analyst review. Proximity and movement patterns alone do not indicate hostile intent, attribution or unlawful activity.",
        "score_integration": false,
        "observation": {
          "event_position": {
            "latitude": 59.860195,
            "longitude": 25.931318,
            "observed_at": "2026-07-23T05:33:55+00:00"
          },
          "latest_position": {
            "latitude": 57.589198333333336,
            "longitude": 11.684841666666667,
            "observed_at": "2026-07-19T19:51:01.241738+00:00"
          },
          "minimum_distance_nm": 0.007,
          "latest_distance_nm": 183.173,
          "track_points_considered": 10,
          "points_within_close_band": 5,
          "low_speed_points_within_close_band": 3,
          "estimated_dwell_minutes": 48.2,
          "close_band_entries": 1,
          "source_timestamp_points": 0,
          "fallback_timestamp_points": 5
        }
      }
    },
    {
      "type": "Feature",
      "geometry": {
        "type": "Point",
        "coordinates": [
          25.81975,
          59.848433
        ]
      },
      "properties": {
        "event_id": "VWI-636024043-pipelines.3424",
        "event_type": "critical_infrastructure_proximity",
        "level": "elevated",
        "confidence": "low_medium",
        "vessel": {
          "mmsi": "636024043",
          "imo": "9400394",
          "name": "TG CRAB",
          "callsign": "5LQR9",
          "categories": [
            "recent_russian_portcall_10d"
          ],
          "source": "Fintraffic Digitraffic"
        },
        "infrastructure": {
          "type": "pipeline",
          "reference_id": "pipelines.3424",
          "name": "NORD STREAM 2",
          "source": "EMODnet Human Activities",
          "source_typename": "emodnet:pipelines"
        },
        "signals": [
          "critical_infrastructure_proximity",
          "low_speed_near_infrastructure",
          "extended_presence_near_infrastructure",
          "voi_or_watchlist_context",
          "timestamp_quality_limited"
        ],
        "assessment": "Behaviour warrants analyst review. Proximity and movement patterns alone do not indicate hostile intent, attribution or unlawful activity.",
        "score_integration": false,
        "observation": {
          "event_position": {
            "latitude": 59.848433,
            "longitude": 25.81975,
            "observed_at": "2026-07-25T05:23:33+00:00"
          },
          "latest_position": {
            "latitude": 59.846933,
            "longitude": 25.825417,
            "observed_at": "2026-07-25T15:18:10+00:00"
          },
          "minimum_distance_nm": 0.009,
          "latest_distance_nm": 0.087,
          "track_points_considered": 13,
          "points_within_close_band": 13,
          "low_speed_points_within_close_band": 13,
          "estimated_dwell_minutes": 48.2,
          "close_band_entries": 1,
          "source_timestamp_points": 0,
          "fallback_timestamp_points": 13
        }
      }
    },
    {
      "type": "Feature",
      "geometry": {
        "type": "Point",
        "coordinates": [
          25.903235,
          59.853105
        ]
      },
      "properties": {
        "event_id": "VWI-667002310-pipelines.3424",
        "event_type": "critical_infrastructure_proximity",
        "level": "elevated",
        "confidence": "low_medium",
        "vessel": {
          "mmsi": "667002310",
          "imo": "9308132",
          "name": "TEMPEST DREAM",
          "callsign": "9LS2013",
          "categories": [
            "sanctions_shadowfleet",
            "watchlist"
          ],
          "source": "Fintraffic Digitraffic"
        },
        "infrastructure": {
          "type": "pipeline",
          "reference_id": "pipelines.3424",
          "name": "NORD STREAM 2",
          "source": "EMODnet Human Activities",
          "source_typename": "emodnet:pipelines"
        },
        "signals": [
          "critical_infrastructure_proximity",
          "low_speed_near_infrastructure",
          "extended_presence_near_infrastructure",
          "voi_or_watchlist_context",
          "timestamp_quality_limited"
        ],
        "assessment": "Behaviour warrants analyst review. Proximity and movement patterns alone do not indicate hostile intent, attribution or unlawful activity.",
        "score_integration": false,
        "observation": {
          "event_position": {
            "latitude": 59.853105,
            "longitude": 25.903235,
            "observed_at": "2026-07-22T15:51:11+00:00"
          },
          "latest_position": {
            "latitude": 59.852802,
            "longitude": 25.904765,
            "observed_at": "2026-07-25T15:18:10+00:00"
          },
          "minimum_distance_nm": 0.012,
          "latest_distance_nm": 0.025,
          "track_points_considered": 13,
          "points_within_close_band": 13,
          "low_speed_points_within_close_band": 13,
          "estimated_dwell_minutes": 48.2,
          "close_band_entries": 1,
          "source_timestamp_points": 0,
          "fallback_timestamp_points": 13
        }
      }
    },
    {
      "type": "Feature",
      "geometry": {
        "type": "Point",
        "coordinates": [
          25.929318,
          59.859237
        ]
      },
      "properties": {
        "event_id": "VWI-636018294-pipelines.3424",
        "event_type": "critical_infrastructure_proximity",
        "level": "elevated",
        "confidence": "low_medium",
        "vessel": {
          "mmsi": "636018294",
          "imo": "9249180",
          "name": "NEW FRIENDSHIP",
          "callsign": "D5PB6",
          "categories": [
            "recent_russian_portcall_10d"
          ],
          "source": "Fintraffic Digitraffic"
        },
        "infrastructure": {
          "type": "pipeline",
          "reference_id": "pipelines.3424",
          "name": "NORD STREAM 2",
          "source": "EMODnet Human Activities",
          "source_typename": "emodnet:pipelines"
        },
        "signals": [
          "critical_infrastructure_proximity",
          "low_speed_near_infrastructure",
          "voi_or_watchlist_context",
          "timestamp_quality_limited"
        ],
        "assessment": "Behaviour warrants analyst review. Proximity and movement patterns alone do not indicate hostile intent, attribution or unlawful activity.",
        "score_integration": false,
        "observation": {
          "event_position": {
            "latitude": 59.859237,
            "longitude": 25.929318,
            "observed_at": "2026-07-24T05:29:23+00:00"
          },
          "latest_position": {
            "latitude": 60.15865,
            "longitude": 27.707183,
            "observed_at": "2026-07-25T15:18:10+00:00"
          },
          "minimum_distance_nm": 0.016,
          "latest_distance_nm": 0.462,
          "track_points_considered": 5,
          "points_within_close_band": 5,
          "low_speed_points_within_close_band": 4,
          "estimated_dwell_minutes": 0.0,
          "close_band_entries": 1,
          "source_timestamp_points": 0,
          "fallback_timestamp_points": 5
        }
      }
    },
    {
      "type": "Feature",
      "geometry": {
        "type": "Point",
        "coordinates": [
          26.015083,
          59.88019
        ]
      },
      "properties": {
        "event_id": "VWI-352005425-pipelines.3424",
        "event_type": "critical_infrastructure_proximity",
        "level": "elevated",
        "confidence": "low_medium",
        "vessel": {
          "mmsi": "352005425",
          "imo": "9346859",
          "name": "SINFA",
          "callsign": "3E8696",
          "categories": [
            "recent_russian_portcall_10d"
          ],
          "source": "Fintraffic Digitraffic"
        },
        "infrastructure": {
          "type": "pipeline",
          "reference_id": "pipelines.3424",
          "name": "NORD STREAM 2",
          "source": "EMODnet Human Activities",
          "source_typename": "emodnet:pipelines"
        },
        "signals": [
          "critical_infrastructure_proximity",
          "low_speed_near_infrastructure",
          "extended_presence_near_infrastructure",
          "voi_or_watchlist_context",
          "timestamp_quality_limited"
        ],
        "assessment": "Behaviour warrants analyst review. Proximity and movement patterns alone do not indicate hostile intent, attribution or unlawful activity.",
        "score_integration": false,
        "observation": {
          "event_position": {
            "latitude": 59.88019,
            "longitude": 26.015083,
            "observed_at": "2026-07-24T05:29:23+00:00"
          },
          "latest_position": {
            "latitude": 59.86854,
            "longitude": 28.404145,
            "observed_at": "2026-07-25T15:18:10+00:00"
          },
          "minimum_distance_nm": 0.066,
          "latest_distance_nm": 26.39,
          "track_points_considered": 10,
          "points_within_close_band": 6,
          "low_speed_points_within_close_band": 6,
          "estimated_dwell_minutes": 48.2,
          "close_band_entries": 1,
          "source_timestamp_points": 0,
          "fallback_timestamp_points": 6
        }
      }
    },
    {
      "type": "Feature",
      "geometry": {
        "type": "Point",
        "coordinates": [
          19.015167,
          69.689293
        ]
      },
      "properties": {
        "event_id": "VWI-273213010-pcablesnve.28",
        "event_type": "critical_infrastructure_proximity",
        "level": "elevated",
        "confidence": "medium",
        "vessel": {
          "mmsi": "273213010",
          "imo": "8522286",
          "name": "OBELIAI",
          "callsign": "UIOL",
          "categories": [
            "russian_mmsi"
          ],
          "source": "BarentsWatch / Norwegian Coastal Administration"
        },
        "infrastructure": {
          "type": "power_cable",
          "reference_id": "pcablesnve.28",
          "name": "pcablesnve.28",
          "source": "EMODnet Human Activities",
          "source_typename": "emodnet:pcablesnve"
        },
        "signals": [
          "critical_infrastructure_proximity",
          "low_speed_near_infrastructure",
          "extended_presence_near_infrastructure",
          "voi_or_watchlist_context"
        ],
        "assessment": "Behaviour warrants analyst review. Proximity and movement patterns alone do not indicate hostile intent, attribution or unlawful activity.",
        "score_integration": false,
        "observation": {
          "event_position": {
            "latitude": 69.689293,
            "longitude": 19.015167,
            "observed_at": "2026-07-22T15:00:27+00:00"
          },
          "latest_position": {
            "latitude": 69.763302,
            "longitude": 5.014532,
            "observed_at": "2026-07-24T20:20:23+00:00"
          },
          "minimum_distance_nm": 0.137,
          "latest_distance_nm": 290.968,
          "track_points_considered": 12,
          "points_within_close_band": 3,
          "low_speed_points_within_close_band": 3,
          "estimated_dwell_minutes": 48.0,
          "close_band_entries": 1,
          "source_timestamp_points": 3,
          "fallback_timestamp_points": 0
        }
      }
    },
    {
      "type": "Feature",
      "geometry": {
        "type": "Point",
        "coordinates": [
          19.015167,
          69.689293
        ]
      },
      "properties": {
        "event_id": "VWI-273213010-pcablesnve.29",
        "event_type": "critical_infrastructure_proximity",
        "level": "elevated",
        "confidence": "medium",
        "vessel": {
          "mmsi": "273213010",
          "imo": "8522286",
          "name": "OBELIAI",
          "callsign": "UIOL",
          "categories": [
            "russian_mmsi"
          ],
          "source": "BarentsWatch / Norwegian Coastal Administration"
        },
        "infrastructure": {
          "type": "power_cable",
          "reference_id": "pcablesnve.29",
          "name": "pcablesnve.29",
          "source": "EMODnet Human Activities",
          "source_typename": "emodnet:pcablesnve"
        },
        "signals": [
          "critical_infrastructure_proximity",
          "low_speed_near_infrastructure",
          "extended_presence_near_infrastructure",
          "voi_or_watchlist_context"
        ],
        "assessment": "Behaviour warrants analyst review. Proximity and movement patterns alone do not indicate hostile intent, attribution or unlawful activity.",
        "score_integration": false,
        "observation": {
          "event_position": {
            "latitude": 69.689293,
            "longitude": 19.015167,
            "observed_at": "2026-07-22T15:00:27+00:00"
          },
          "latest_position": {
            "latitude": 69.763302,
            "longitude": 5.014532,
            "observed_at": "2026-07-24T20:20:23+00:00"
          },
          "minimum_distance_nm": 0.137,
          "latest_distance_nm": 290.968,
          "track_points_considered": 12,
          "points_within_close_band": 3,
          "low_speed_points_within_close_band": 3,
          "estimated_dwell_minutes": 48.0,
          "close_band_entries": 1,
          "source_timestamp_points": 3,
          "fallback_timestamp_points": 0
        }
      }
    },
    {
      "type": "Feature",
      "geometry": {
        "type": "Point",
        "coordinates": [
          24.01832,
          59.663567
        ]
      },
      "properties": {
        "event_id": "VWI-461000370-pipelines.3423",
        "event_type": "critical_infrastructure_proximity",
        "level": "elevated",
        "confidence": "low_medium",
        "vessel": {
          "mmsi": "461000370",
          "imo": "9345623",
          "name": "ELYTE",
          "callsign": "A4HF5",
          "categories": [
            "recent_russian_portcall_10d",
            "sanctions_shadowfleet",
            "watchlist"
          ],
          "source": "Fintraffic Digitraffic"
        },
        "infrastructure": {
          "type": "pipeline",
          "reference_id": "pipelines.3423",
          "name": "NORD STREAM 1",
          "source": "EMODnet Human Activities",
          "source_typename": "emodnet:pipelines"
        },
        "signals": [
          "critical_infrastructure_proximity",
          "extended_presence_near_infrastructure",
          "voi_or_watchlist_context",
          "timestamp_quality_limited"
        ],
        "assessment": "Behaviour warrants analyst review. Proximity and movement patterns alone do not indicate hostile intent, attribution or unlawful activity.",
        "score_integration": false,
        "observation": {
          "event_position": {
            "latitude": 59.663567,
            "longitude": 24.01832,
            "observed_at": "2026-07-22T15:51:11+00:00"
          },
          "latest_position": {
            "latitude": 60.100238,
            "longitude": 29.36328,
            "observed_at": "2026-07-25T15:18:10+00:00"
          },
          "minimum_distance_nm": 0.143,
          "latest_distance_nm": 43.715,
          "track_points_considered": 10,
          "points_within_close_band": 2,
          "low_speed_points_within_close_band": 0,
          "estimated_dwell_minutes": 48.2,
          "close_band_entries": 1,
          "source_timestamp_points": 0,
          "fallback_timestamp_points": 2
        }
      }
    },
    {
      "type": "Feature",
      "geometry": {
        "type": "Point",
        "coordinates": [
          25.871122,
          59.851808
        ]
      },
      "properties": {
        "event_id": "VWI-373638000-pipelines.3424",
        "event_type": "critical_infrastructure_proximity",
        "level": "elevated",
        "confidence": "low_medium",
        "vessel": {
          "mmsi": "373638000",
          "imo": "9282912",
          "name": "AFRAMAX RIVIERA",
          "callsign": "3EUK2",
          "categories": [
            "recent_russian_portcall_10d"
          ],
          "source": "Fintraffic Digitraffic"
        },
        "infrastructure": {
          "type": "pipeline",
          "reference_id": "pipelines.3424",
          "name": "NORD STREAM 2",
          "source": "EMODnet Human Activities",
          "source_typename": "emodnet:pipelines"
        },
        "signals": [
          "critical_infrastructure_proximity",
          "low_speed_near_infrastructure",
          "voi_or_watchlist_context",
          "timestamp_quality_limited"
        ],
        "assessment": "Behaviour warrants analyst review. Proximity and movement patterns alone do not indicate hostile intent, attribution or unlawful activity.",
        "score_integration": false,
        "observation": {
          "event_position": {
            "latitude": 59.851808,
            "longitude": 25.871122,
            "observed_at": "2026-07-25T15:18:10+00:00"
          },
          "latest_position": {
            "latitude": 59.851808,
            "longitude": 25.871122,
            "observed_at": "2026-07-25T15:18:10+00:00"
          },
          "minimum_distance_nm": 0.156,
          "latest_distance_nm": 0.156,
          "track_points_considered": 9,
          "points_within_close_band": 7,
          "low_speed_points_within_close_band": 7,
          "estimated_dwell_minutes": 0.0,
          "close_band_entries": 1,
          "source_timestamp_points": 0,
          "fallback_timestamp_points": 7
        }
      }
    },
    {
      "type": "Feature",
      "geometry": {
        "type": "Point",
        "coordinates": [
          28.154445,
          60.524705
        ]
      },
      "properties": {
        "event_id": "VWI-273299870-pipelines.3424",
        "event_type": "critical_infrastructure_proximity",
        "level": "elevated",
        "confidence": "low_medium",
        "vessel": {
          "mmsi": "273299870",
          "imo": "9841055",
          "name": "BOGATYR",
          "callsign": "UBPW8",
          "categories": [
            "russian_mmsi"
          ],
          "source": "Fintraffic Digitraffic"
        },
        "infrastructure": {
          "type": "pipeline",
          "reference_id": "pipelines.3424",
          "name": "NORD STREAM 2",
          "source": "EMODnet Human Activities",
          "source_typename": "emodnet:pipelines"
        },
        "signals": [
          "critical_infrastructure_proximity",
          "low_speed_near_infrastructure",
          "repeated_entries_into_close_band",
          "voi_or_watchlist_context",
          "timestamp_quality_limited"
        ],
        "assessment": "Behaviour warrants analyst review. Proximity and movement patterns alone do not indicate hostile intent, attribution or unlawful activity.",
        "score_integration": false,
        "observation": {
          "event_position": {
            "latitude": 60.524705,
            "longitude": 28.154445,
            "observed_at": "2026-07-21T05:00:00+00:00"
          },
          "latest_position": {
            "latitude": 60.524413,
            "longitude": 28.154705,
            "observed_at": "2026-07-25T15:18:10+00:00"
          },
          "minimum_distance_nm": 0.359,
          "latest_distance_nm": 0.367,
          "track_points_considered": 13,
          "points_within_close_band": 12,
          "low_speed_points_within_close_band": 12,
          "estimated_dwell_minutes": 0.0,
          "close_band_entries": 2,
          "source_timestamp_points": 0,
          "fallback_timestamp_points": 12
        }
      }
    },
    {
      "type": "Feature",
      "geometry": {
        "type": "Point",
        "coordinates": [
          28.154592,
          60.524678
        ]
      },
      "properties": {
        "event_id": "VWI-273618550-pipelines.3424",
        "event_type": "critical_infrastructure_proximity",
        "level": "elevated",
        "confidence": "low_medium",
        "vessel": {
          "mmsi": "273618550",
          "imo": "9879557",
          "name": "VITYAZ",
          "callsign": "UBHY8",
          "categories": [
            "recent_russian_portcall_10d",
            "russian_mmsi"
          ],
          "source": "Fintraffic Digitraffic"
        },
        "infrastructure": {
          "type": "pipeline",
          "reference_id": "pipelines.3424",
          "name": "NORD STREAM 2",
          "source": "EMODnet Human Activities",
          "source_typename": "emodnet:pipelines"
        },
        "signals": [
          "critical_infrastructure_proximity",
          "low_speed_near_infrastructure",
          "extended_presence_near_infrastructure",
          "voi_or_watchlist_context",
          "timestamp_quality_limited"
        ],
        "assessment": "Behaviour warrants analyst review. Proximity and movement patterns alone do not indicate hostile intent, attribution or unlawful activity.",
        "score_integration": false,
        "observation": {
          "event_position": {
            "latitude": 60.524678,
            "longitude": 28.154592,
            "observed_at": "2026-07-21T05:00:00+00:00"
          },
          "latest_position": {
            "latitude": 60.524745,
            "longitude": 28.154713,
            "observed_at": "2026-07-25T15:18:10+00:00"
          },
          "minimum_distance_nm": 0.364,
          "latest_distance_nm": 0.367,
          "track_points_considered": 13,
          "points_within_close_band": 13,
          "low_speed_points_within_close_band": 13,
          "estimated_dwell_minutes": 48.2,
          "close_band_entries": 1,
          "source_timestamp_points": 0,
          "fallback_timestamp_points": 13
        }
      }
    },
    {
      "type": "Feature",
      "geometry": {
        "type": "Point",
        "coordinates": [
          2.938865,
          51.22491
        ]
      },
      "properties": {
        "event_id": "VWI-518100214-oenergy.fid--33fabb22_19f848d8412_-db5",
        "event_type": "critical_infrastructure_proximity",
        "level": "review",
        "confidence": "medium",
        "vessel": {
          "mmsi": "518100214",
          "imo": "8605765",
          "name": "BLUE THISTLE",
          "callsign": "E5U3155",
          "categories": [
            "falseflag_interest"
          ],
          "source": "AISStream"
        },
        "infrastructure": {
          "type": "offshore_energy",
          "reference_id": "oenergy.fid--33fabb22_19f848d8412_-db5",
          "name": "Flan Sea",
          "source": "EMODnet Human Activities",
          "source_typename": null
        },
        "signals": [
          "critical_infrastructure_proximity",
          "low_speed_near_infrastructure",
          "voi_or_watchlist_context"
        ],
        "assessment": "Behaviour warrants analyst review. Proximity and movement patterns alone do not indicate hostile intent, attribution or unlawful activity.",
        "score_integration": false,
        "observation": {
          "event_position": {
            "latitude": 51.22491,
            "longitude": 2.938865,
            "observed_at": "2026-07-24T04:54:24.505089+00:00"
          },
          "latest_position": {
            "latitude": 51.22489333333333,
            "longitude": 2.9388566666666667,
            "observed_at": "2026-07-25T04:48:37.576103+00:00"
          },
          "minimum_distance_nm": 0.494,
          "latest_distance_nm": 0.495,
          "track_points_considered": 8,
          "points_within_close_band": 8,
          "low_speed_points_within_close_band": 8,
          "estimated_dwell_minutes": 0.0,
          "close_band_entries": 1,
          "source_timestamp_points": 8,
          "fallback_timestamp_points": 0
        }
      }
    },
    {
      "type": "Feature",
      "geometry": {
        "type": "Point",
        "coordinates": [
          30.076027,
          69.729375
        ]
      },
      "properties": {
        "event_id": "VWI-273439910-pcablesnve.734",
        "event_type": "critical_infrastructure_proximity",
        "level": "review",
        "confidence": "medium",
        "vessel": {
          "mmsi": "273439910",
          "imo": "8413370",
          "name": "KEM",
          "callsign": "UBGR3",
          "categories": [
            "recent_russian_portcall_10d",
            "russian_mmsi"
          ],
          "source": "BarentsWatch / Norwegian Coastal Administration"
        },
        "infrastructure": {
          "type": "power_cable",
          "reference_id": "pcablesnve.734",
          "name": "pcablesnve.734",
          "source": "EMODnet Human Activities",
          "source_typename": "emodnet:pcablesnve"
        },
        "signals": [
          "critical_infrastructure_proximity",
          "low_speed_near_infrastructure",
          "voi_or_watchlist_context"
        ],
        "assessment": "Behaviour warrants analyst review. Proximity and movement patterns alone do not indicate hostile intent, attribution or unlawful activity.",
        "score_integration": false,
        "observation": {
          "event_position": {
            "latitude": 69.729375,
            "longitude": 30.076027,
            "observed_at": "2026-07-20T16:42:41+00:00"
          },
          "latest_position": {
            "latitude": 69.999987,
            "longitude": 31.161698,
            "observed_at": "2026-07-22T17:18:49+00:00"
          },
          "minimum_distance_nm": 0.524,
          "latest_distance_nm": 26.938,
          "track_points_considered": 13,
          "points_within_close_band": 4,
          "low_speed_points_within_close_band": 4,
          "estimated_dwell_minutes": 0.0,
          "close_band_entries": 1,
          "source_timestamp_points": 4,
          "fallback_timestamp_points": 0
        }
      }
    },
    {
      "type": "Feature",
      "geometry": {
        "type": "Point",
        "coordinates": [
          25.790512,
          59.838042
        ]
      },
      "properties": {
        "event_id": "VWI-525121061-pipelines.3424",
        "event_type": "critical_infrastructure_proximity",
        "level": "review",
        "confidence": "low_medium",
        "vessel": {
          "mmsi": "525121061",
          "imo": "9306639",
          "name": "SAVIR LION",
          "callsign": "YDFU3",
          "categories": [
            "recent_russian_portcall_10d"
          ],
          "source": "Fintraffic Digitraffic"
        },
        "infrastructure": {
          "type": "pipeline",
          "reference_id": "pipelines.3424",
          "name": "NORD STREAM 2",
          "source": "EMODnet Human Activities",
          "source_typename": "emodnet:pipelines"
        },
        "signals": [
          "critical_infrastructure_proximity",
          "low_speed_near_infrastructure",
          "voi_or_watchlist_context",
          "timestamp_quality_limited"
        ],
        "assessment": "Behaviour warrants analyst review. Proximity and movement patterns alone do not indicate hostile intent, attribution or unlawful activity.",
        "score_integration": false,
        "observation": {
          "event_position": {
            "latitude": 59.838042,
            "longitude": 25.790512,
            "observed_at": "2026-07-25T05:23:33+00:00"
          },
          "latest_position": {
            "latitude": 59.835397,
            "longitude": 25.795307,
            "observed_at": "2026-07-25T15:18:10+00:00"
          },
          "minimum_distance_nm": 0.582,
          "latest_distance_nm": 0.746,
          "track_points_considered": 7,
          "points_within_close_band": 5,
          "low_speed_points_within_close_band": 5,
          "estimated_dwell_minutes": 0.0,
          "close_band_entries": 1,
          "source_timestamp_points": 0,
          "fallback_timestamp_points": 5
        }
      }
    },
    {
      "type": "Feature",
      "geometry": {
        "type": "Point",
        "coordinates": [
          18.993317,
          69.679065
        ]
      },
      "properties": {
        "event_id": "VWI-273355780-pcablesnve.28",
        "event_type": "critical_infrastructure_proximity",
        "level": "review",
        "confidence": "low_medium",
        "vessel": {
          "mmsi": "273355780",
          "imo": "9039767",
          "name": "FORPOST",
          "callsign": "UBNJ3",
          "categories": [
            "russian_mmsi"
          ],
          "source": "BarentsWatch / Norwegian Coastal Administration"
        },
        "infrastructure": {
          "type": "power_cable",
          "reference_id": "pcablesnve.28",
          "name": "pcablesnve.28",
          "source": "EMODnet Human Activities",
          "source_typename": "emodnet:pcablesnve"
        },
        "signals": [
          "critical_infrastructure_proximity",
          "low_speed_near_infrastructure",
          "voi_or_watchlist_context"
        ],
        "assessment": "Behaviour warrants analyst review. Proximity and movement patterns alone do not indicate hostile intent, attribution or unlawful activity.",
        "score_integration": false,
        "observation": {
          "event_position": {
            "latitude": 69.679065,
            "longitude": 18.993317,
            "observed_at": "2026-07-24T15:40:59+00:00"
          },
          "latest_position": {
            "latitude": 73.730218,
            "longitude": 18.17125,
            "observed_at": "2026-07-25T15:08:35+00:00"
          },
          "minimum_distance_nm": 0.61,
          "latest_distance_nm": 243.049,
          "track_points_considered": 14,
          "points_within_close_band": 2,
          "low_speed_points_within_close_band": 2,
          "estimated_dwell_minutes": 0.0,
          "close_band_entries": 1,
          "source_timestamp_points": 2,
          "fallback_timestamp_points": 0
        }
      }
    },
    {
      "type": "Feature",
      "geometry": {
        "type": "Point",
        "coordinates": [
          18.993317,
          69.679065
        ]
      },
      "properties": {
        "event_id": "VWI-273355780-pcablesnve.29",
        "event_type": "critical_infrastructure_proximity",
        "level": "review",
        "confidence": "low_medium",
        "vessel": {
          "mmsi": "273355780",
          "imo": "9039767",
          "name": "FORPOST",
          "callsign": "UBNJ3",
          "categories": [
            "russian_mmsi"
          ],
          "source": "BarentsWatch / Norwegian Coastal Administration"
        },
        "infrastructure": {
          "type": "power_cable",
          "reference_id": "pcablesnve.29",
          "name": "pcablesnve.29",
          "source": "EMODnet Human Activities",
          "source_typename": "emodnet:pcablesnve"
        },
        "signals": [
          "critical_infrastructure_proximity",
          "low_speed_near_infrastructure",
          "voi_or_watchlist_context"
        ],
        "assessment": "Behaviour warrants analyst review. Proximity and movement patterns alone do not indicate hostile intent, attribution or unlawful activity.",
        "score_integration": false,
        "observation": {
          "event_position": {
            "latitude": 69.679065,
            "longitude": 18.993317,
            "observed_at": "2026-07-24T15:40:59+00:00"
          },
          "latest_position": {
            "latitude": 73.730218,
            "longitude": 18.17125,
            "observed_at": "2026-07-25T15:08:35+00:00"
          },
          "minimum_distance_nm": 0.61,
          "latest_distance_nm": 243.049,
          "track_points_considered": 14,
          "points_within_close_band": 2,
          "low_speed_points_within_close_band": 2,
          "estimated_dwell_minutes": 0.0,
          "close_band_entries": 1,
          "source_timestamp_points": 2,
          "fallback_timestamp_points": 0
        }
      }
    }
  ],
  "metadata": {
    "schema_version": "1.0.0",
    "generated_at": "2026-07-25T15:18:45+00:00",
    "source": "Voodoo Whiskers",
    "reference_source": "EMODnet Human Activities",
    "score_integration": false,
    "analysis_window_hours": 120,
    "reference_ready": true,
    "reference_feature_counts": {
      "telecommunication_cable": 28,
      "power_cable": 1044,
      "cable_landing": 0,
      "pipeline": 3924,
      "wind_farm": 826,
      "offshore_energy": 222
    },
    "event_count": 16,
    "assessment_limit": "Proximity and movement patterns are analyst leads and do not establish hostile intent, attribution or unlawful activity."
  }
}
