{"type":"FeatureCollection","name":"Voodoo Whiskers delayed GFW SAR vessel-detection cells","generated_at":"2026-07-25T06:06:59Z","source":"Global Fishing Watch 4Wings API / Sentinel-1 SAR vessel detections","attribution":"Powered by Global Fishing Watch.","attribution_url":"https://globalfishingwatch.org","assessment_limit":"Delayed SAR detection cells support analyst review. Grid-cell centres are not exact vessel positions. An AIS-unmatched detection does not by itself establish intentional AIS disablement, identity, unlawful activity, attribution or hostile intent.","summary":{"queries_total":4,"queries_successful":4,"queries_failed":0,"records_total":0,"records_before_cap":0,"feature_cap":12000,"feature_cap_applied":false,"ais_unmatched":0,"ais_matched":0,"watchlist_matches":0,"rows_seen":0,"rows_invalid":0,"duplicates":0},"features":[]}
