{
  "type": "FeatureCollection",
  "features": [
    {
      "type": "Feature",
      "geometry": {
        "type": "Point",
        "coordinates": [
          25.902255,
          59.852455
        ]
      },
      "properties": {
        "event_id": "VWI-667002310-pipelines.3424",
        "event_type": "critical_infrastructure_proximity",
        "level": "elevated",
        "confidence": "low_medium",
        "vessel": {
          "mmsi": "667002310",
          "imo": "9308132",
          "name": "TEMPEST DREAM",
          "callsign": "9LS2013",
          "categories": [
            "sanctions_shadowfleet",
            "watchlist"
          ],
          "source": "Fintraffic Digitraffic"
        },
        "infrastructure": {
          "type": "pipeline",
          "reference_id": "pipelines.3424",
          "name": "NORD STREAM 2",
          "source": "EMODnet Human Activities",
          "source_typename": "emodnet:pipelines"
        },
        "signals": [
          "critical_infrastructure_proximity",
          "low_speed_near_infrastructure",
          "voi_or_watchlist_context",
          "timestamp_quality_limited"
        ],
        "assessment": "Behaviour warrants analyst review. Proximity and movement patterns alone do not indicate hostile intent, attribution or unlawful activity.",
        "score_integration": false,
        "observation": {
          "event_position": {
            "latitude": 59.852455,
            "longitude": 25.902255,
            "observed_at": "2026-08-14T04:19:05+00:00"
          },
          "latest_position": {
            "latitude": 59.852455,
            "longitude": 25.902255,
            "observed_at": "2026-08-14T04:19:05+00:00"
          },
          "minimum_distance_nm": 0.01,
          "latest_distance_nm": 0.01,
          "track_points_considered": 11,
          "points_within_close_band": 11,
          "low_speed_points_within_close_band": 11,
          "estimated_dwell_minutes": 0.0,
          "close_band_entries": 1,
          "source_timestamp_points": 0,
          "fallback_timestamp_points": 11
        }
      }
    },
    {
      "type": "Feature",
      "geometry": {
        "type": "Point",
        "coordinates": [
          25.593223,
          59.843893
        ]
      },
      "properties": {
        "event_id": "VWI-273216620-pipelines.3424",
        "event_type": "critical_infrastructure_proximity",
        "level": "elevated",
        "confidence": "low_medium",
        "vessel": {
          "mmsi": "273216620",
          "imo": "9889198",
          "name": "ALEKSANDR SOKOLOV",
          "callsign": "UBKK",
          "categories": [
            "russian_mmsi"
          ],
          "source": "Fintraffic Digitraffic"
        },
        "infrastructure": {
          "type": "pipeline",
          "reference_id": "pipelines.3424",
          "name": "NORD STREAM 2",
          "source": "EMODnet Human Activities",
          "source_typename": "emodnet:pipelines"
        },
        "signals": [
          "critical_infrastructure_proximity",
          "repeated_entries_into_close_band",
          "voi_or_watchlist_context",
          "timestamp_quality_limited"
        ],
        "assessment": "Behaviour warrants analyst review. Proximity and movement patterns alone do not indicate hostile intent, attribution or unlawful activity.",
        "score_integration": false,
        "observation": {
          "event_position": {
            "latitude": 59.843893,
            "longitude": 25.593223,
            "observed_at": "2026-08-09T14:51:22+00:00"
          },
          "latest_position": {
            "latitude": 55.981922,
            "longitude": 19.111437,
            "observed_at": "2026-08-14T04:19:05+00:00"
          },
          "minimum_distance_nm": 0.016,
          "latest_distance_nm": 25.638,
          "track_points_considered": 10,
          "points_within_close_band": 3,
          "low_speed_points_within_close_band": 0,
          "estimated_dwell_minutes": 0.0,
          "close_band_entries": 2,
          "source_timestamp_points": 0,
          "fallback_timestamp_points": 3
        }
      }
    },
    {
      "type": "Feature",
      "geometry": {
        "type": "Point",
        "coordinates": [
          28.025313,
          60.41776
        ]
      },
      "properties": {
        "event_id": "VWI-273253530-pipelines.3423",
        "event_type": "critical_infrastructure_proximity",
        "level": "elevated",
        "confidence": "low_medium",
        "vessel": {
          "mmsi": "273253530",
          "imo": "9943011",
          "name": "RATNIK",
          "callsign": "UAYA4",
          "categories": [
            "russian_mmsi"
          ],
          "source": "Fintraffic Digitraffic"
        },
        "infrastructure": {
          "type": "pipeline",
          "reference_id": "pipelines.3423",
          "name": "NORD STREAM 1",
          "source": "EMODnet Human Activities",
          "source_typename": "emodnet:pipelines"
        },
        "signals": [
          "critical_infrastructure_proximity",
          "repeated_entries_into_close_band",
          "voi_or_watchlist_context",
          "timestamp_quality_limited"
        ],
        "assessment": "Behaviour warrants analyst review. Proximity and movement patterns alone do not indicate hostile intent, attribution or unlawful activity.",
        "score_integration": false,
        "observation": {
          "event_position": {
            "latitude": 60.41776,
            "longitude": 28.025313,
            "observed_at": "2026-08-10T15:15:52+00:00"
          },
          "latest_position": {
            "latitude": 60.51801,
            "longitude": 28.002898,
            "observed_at": "2026-08-14T04:19:05+00:00"
          },
          "minimum_distance_nm": 0.042,
          "latest_distance_nm": 2.182,
          "track_points_considered": 11,
          "points_within_close_band": 4,
          "low_speed_points_within_close_band": 0,
          "estimated_dwell_minutes": 0.0,
          "close_band_entries": 2,
          "source_timestamp_points": 0,
          "fallback_timestamp_points": 4
        }
      }
    },
    {
      "type": "Feature",
      "geometry": {
        "type": "Point",
        "coordinates": [
          19.014843,
          69.68903
        ]
      },
      "properties": {
        "event_id": "VWI-273437550-pcablesnve.28",
        "event_type": "critical_infrastructure_proximity",
        "level": "elevated",
        "confidence": "medium",
        "vessel": {
          "mmsi": "273437550",
          "imo": "8606654",
          "name": "VITYAZ",
          "callsign": "UBAK",
          "categories": [
            "recent_russian_portcall_10d",
            "russian_mmsi"
          ],
          "source": "BarentsWatch / Norwegian Coastal Administration"
        },
        "infrastructure": {
          "type": "power_cable",
          "reference_id": "pcablesnve.28",
          "name": "pcablesnve.28",
          "source": "EMODnet Human Activities",
          "source_typename": "emodnet:pcablesnve"
        },
        "signals": [
          "critical_infrastructure_proximity",
          "low_speed_near_infrastructure",
          "voi_or_watchlist_context"
        ],
        "assessment": "Behaviour warrants analyst review. Proximity and movement patterns alone do not indicate hostile intent, attribution or unlawful activity.",
        "score_integration": false,
        "observation": {
          "event_position": {
            "latitude": 69.68903,
            "longitude": 19.014843,
            "observed_at": "2026-08-11T03:54:29+00:00"
          },
          "latest_position": {
            "latitude": 68.402253,
            "longitude": 3.474383,
            "observed_at": "2026-08-08T02:25:53+00:00"
          },
          "minimum_distance_nm": 0.119,
          "latest_distance_nm": 342.125,
          "track_points_considered": 11,
          "points_within_close_band": 4,
          "low_speed_points_within_close_band": 4,
          "estimated_dwell_minutes": 0.0,
          "close_band_entries": 1,
          "source_timestamp_points": 4,
          "fallback_timestamp_points": 0
        }
      }
    },
    {
      "type": "Feature",
      "geometry": {
        "type": "Point",
        "coordinates": [
          19.014843,
          69.68903
        ]
      },
      "properties": {
        "event_id": "VWI-273437550-pcablesnve.29",
        "event_type": "critical_infrastructure_proximity",
        "level": "elevated",
        "confidence": "medium",
        "vessel": {
          "mmsi": "273437550",
          "imo": "8606654",
          "name": "VITYAZ",
          "callsign": "UBAK",
          "categories": [
            "recent_russian_portcall_10d",
            "russian_mmsi"
          ],
          "source": "BarentsWatch / Norwegian Coastal Administration"
        },
        "infrastructure": {
          "type": "power_cable",
          "reference_id": "pcablesnve.29",
          "name": "pcablesnve.29",
          "source": "EMODnet Human Activities",
          "source_typename": "emodnet:pcablesnve"
        },
        "signals": [
          "critical_infrastructure_proximity",
          "low_speed_near_infrastructure",
          "voi_or_watchlist_context"
        ],
        "assessment": "Behaviour warrants analyst review. Proximity and movement patterns alone do not indicate hostile intent, attribution or unlawful activity.",
        "score_integration": false,
        "observation": {
          "event_position": {
            "latitude": 69.68903,
            "longitude": 19.014843,
            "observed_at": "2026-08-11T03:54:29+00:00"
          },
          "latest_position": {
            "latitude": 68.402253,
            "longitude": 3.474383,
            "observed_at": "2026-08-08T02:25:53+00:00"
          },
          "minimum_distance_nm": 0.119,
          "latest_distance_nm": 342.125,
          "track_points_considered": 11,
          "points_within_close_band": 4,
          "low_speed_points_within_close_band": 4,
          "estimated_dwell_minutes": 0.0,
          "close_band_entries": 1,
          "source_timestamp_points": 4,
          "fallback_timestamp_points": 0
        }
      }
    },
    {
      "type": "Feature",
      "geometry": {
        "type": "Point",
        "coordinates": [
          23.553737,
          60.096302
        ]
      },
      "properties": {
        "event_id": "VWI-230931000-pipelines.3716",
        "event_type": "critical_infrastructure_proximity",
        "level": "elevated",
        "confidence": "low_medium",
        "vessel": {
          "mmsi": "230931000",
          "imo": "5400267",
          "name": "AJAX",
          "callsign": "OJGZ",
          "categories": [
            "recent_russian_portcall_10d"
          ],
          "source": "Fintraffic Digitraffic"
        },
        "infrastructure": {
          "type": "pipeline",
          "reference_id": "pipelines.3716",
          "name": "pipelines.3716",
          "source": "EMODnet Human Activities",
          "source_typename": "emodnet:pipelines"
        },
        "signals": [
          "critical_infrastructure_proximity",
          "low_speed_near_infrastructure",
          "voi_or_watchlist_context",
          "timestamp_quality_limited"
        ],
        "assessment": "Behaviour warrants analyst review. Proximity and movement patterns alone do not indicate hostile intent, attribution or unlawful activity.",
        "score_integration": false,
        "observation": {
          "event_position": {
            "latitude": 60.096302,
            "longitude": 23.553737,
            "observed_at": "2026-08-09T14:51:22+00:00"
          },
          "latest_position": {
            "latitude": 60.096357,
            "longitude": 23.553718,
            "observed_at": "2026-08-14T04:19:05+00:00"
          },
          "minimum_distance_nm": 0.196,
          "latest_distance_nm": 0.199,
          "track_points_considered": 11,
          "points_within_close_band": 11,
          "low_speed_points_within_close_band": 11,
          "estimated_dwell_minutes": 0.0,
          "close_band_entries": 1,
          "source_timestamp_points": 0,
          "fallback_timestamp_points": 11
        }
      }
    },
    {
      "type": "Feature",
      "geometry": {
        "type": "Point",
        "coordinates": [
          23.553737,
          60.096302
        ]
      },
      "properties": {
        "event_id": "VWI-230931000-pipelines.3715",
        "event_type": "critical_infrastructure_proximity",
        "level": "elevated",
        "confidence": "low_medium",
        "vessel": {
          "mmsi": "230931000",
          "imo": "5400267",
          "name": "AJAX",
          "callsign": "OJGZ",
          "categories": [
            "recent_russian_portcall_10d"
          ],
          "source": "Fintraffic Digitraffic"
        },
        "infrastructure": {
          "type": "pipeline",
          "reference_id": "pipelines.3715",
          "name": "pipelines.3715",
          "source": "EMODnet Human Activities",
          "source_typename": "emodnet:pipelines"
        },
        "signals": [
          "critical_infrastructure_proximity",
          "low_speed_near_infrastructure",
          "voi_or_watchlist_context",
          "timestamp_quality_limited"
        ],
        "assessment": "Behaviour warrants analyst review. Proximity and movement patterns alone do not indicate hostile intent, attribution or unlawful activity.",
        "score_integration": false,
        "observation": {
          "event_position": {
            "latitude": 60.096302,
            "longitude": 23.553737,
            "observed_at": "2026-08-09T14:51:22+00:00"
          },
          "latest_position": {
            "latitude": 60.096357,
            "longitude": 23.553718,
            "observed_at": "2026-08-14T04:19:05+00:00"
          },
          "minimum_distance_nm": 0.2,
          "latest_distance_nm": 0.203,
          "track_points_considered": 11,
          "points_within_close_band": 11,
          "low_speed_points_within_close_band": 11,
          "estimated_dwell_minutes": 0.0,
          "close_band_entries": 1,
          "source_timestamp_points": 0,
          "fallback_timestamp_points": 11
        }
      }
    },
    {
      "type": "Feature",
      "geometry": {
        "type": "Point",
        "coordinates": [
          25.942028,
          59.858807
        ]
      },
      "properties": {
        "event_id": "VWI-631010110-pipelines.3424",
        "event_type": "critical_infrastructure_proximity",
        "level": "elevated",
        "confidence": "low_medium",
        "vessel": {
          "mmsi": "631010110",
          "imo": "9270517",
          "name": "CINDY",
          "callsign": "3CAN34",
          "categories": [
            "sanctions_shadowfleet",
            "watchlist"
          ],
          "source": "Fintraffic Digitraffic"
        },
        "infrastructure": {
          "type": "pipeline",
          "reference_id": "pipelines.3424",
          "name": "NORD STREAM 2",
          "source": "EMODnet Human Activities",
          "source_typename": "emodnet:pipelines"
        },
        "signals": [
          "critical_infrastructure_proximity",
          "low_speed_near_infrastructure",
          "voi_or_watchlist_context",
          "timestamp_quality_limited"
        ],
        "assessment": "Behaviour warrants analyst review. Proximity and movement patterns alone do not indicate hostile intent, attribution or unlawful activity.",
        "score_integration": false,
        "observation": {
          "event_position": {
            "latitude": 59.858807,
            "longitude": 25.942028,
            "observed_at": "2026-08-11T15:16:25+00:00"
          },
          "latest_position": {
            "latitude": 59.868907,
            "longitude": 28.448933,
            "observed_at": "2026-08-14T04:19:05+00:00"
          },
          "minimum_distance_nm": 0.213,
          "latest_distance_nm": 27.189,
          "track_points_considered": 10,
          "points_within_close_band": 4,
          "low_speed_points_within_close_band": 4,
          "estimated_dwell_minutes": 0.0,
          "close_band_entries": 1,
          "source_timestamp_points": 0,
          "fallback_timestamp_points": 4
        }
      }
    },
    {
      "type": "Feature",
      "geometry": {
        "type": "Point",
        "coordinates": [
          18.971852,
          69.657882
        ]
      },
      "properties": {
        "event_id": "VWI-273213010-pcablesnve.23",
        "event_type": "critical_infrastructure_proximity",
        "level": "elevated",
        "confidence": "low_medium",
        "vessel": {
          "mmsi": "273213010",
          "imo": "8522286",
          "name": "OBELIAI",
          "callsign": "UIOL",
          "categories": [
            "russian_mmsi"
          ],
          "source": "BarentsWatch / Norwegian Coastal Administration"
        },
        "infrastructure": {
          "type": "power_cable",
          "reference_id": "pcablesnve.23",
          "name": "pcablesnve.23",
          "source": "EMODnet Human Activities",
          "source_typename": "emodnet:pcablesnve"
        },
        "signals": [
          "critical_infrastructure_proximity",
          "low_speed_near_infrastructure",
          "voi_or_watchlist_context"
        ],
        "assessment": "Behaviour warrants analyst review. Proximity and movement patterns alone do not indicate hostile intent, attribution or unlawful activity.",
        "score_integration": false,
        "observation": {
          "event_position": {
            "latitude": 69.657882,
            "longitude": 18.971852,
            "observed_at": "2026-08-12T15:13:29+00:00"
          },
          "latest_position": {
            "latitude": 73.99908,
            "longitude": 18.301148,
            "observed_at": "2026-08-14T04:18:57+00:00"
          },
          "minimum_distance_nm": 0.239,
          "latest_distance_nm": 260.975,
          "track_points_considered": 11,
          "points_within_close_band": 2,
          "low_speed_points_within_close_band": 2,
          "estimated_dwell_minutes": 0.0,
          "close_band_entries": 1,
          "source_timestamp_points": 2,
          "fallback_timestamp_points": 0
        }
      }
    },
    {
      "type": "Feature",
      "geometry": {
        "type": "Point",
        "coordinates": [
          28.154613,
          60.524763
        ]
      },
      "properties": {
        "event_id": "VWI-273618550-pipelines.3424",
        "event_type": "critical_infrastructure_proximity",
        "level": "elevated",
        "confidence": "low_medium",
        "vessel": {
          "mmsi": "273618550",
          "imo": "9879557",
          "name": "VITYAZ",
          "callsign": "UBHY8",
          "categories": [
            "russian_mmsi"
          ],
          "source": "Fintraffic Digitraffic"
        },
        "infrastructure": {
          "type": "pipeline",
          "reference_id": "pipelines.3424",
          "name": "NORD STREAM 2",
          "source": "EMODnet Human Activities",
          "source_typename": "emodnet:pipelines"
        },
        "signals": [
          "critical_infrastructure_proximity",
          "low_speed_near_infrastructure",
          "repeated_entries_into_close_band",
          "voi_or_watchlist_context",
          "timestamp_quality_limited"
        ],
        "assessment": "Behaviour warrants analyst review. Proximity and movement patterns alone do not indicate hostile intent, attribution or unlawful activity.",
        "score_integration": false,
        "observation": {
          "event_position": {
            "latitude": 60.524763,
            "longitude": 28.154613,
            "observed_at": "2026-08-14T04:19:05+00:00"
          },
          "latest_position": {
            "latitude": 60.524763,
            "longitude": 28.154613,
            "observed_at": "2026-08-14T04:19:05+00:00"
          },
          "minimum_distance_nm": 0.364,
          "latest_distance_nm": 0.364,
          "track_points_considered": 11,
          "points_within_close_band": 9,
          "low_speed_points_within_close_band": 9,
          "estimated_dwell_minutes": 0.0,
          "close_band_entries": 2,
          "source_timestamp_points": 0,
          "fallback_timestamp_points": 9
        }
      }
    },
    {
      "type": "Feature",
      "geometry": {
        "type": "Point",
        "coordinates": [
          28.154845,
          60.524422
        ]
      },
      "properties": {
        "event_id": "VWI-273299870-pipelines.3424",
        "event_type": "critical_infrastructure_proximity",
        "level": "elevated",
        "confidence": "low_medium",
        "vessel": {
          "mmsi": "273299870",
          "imo": "9841055",
          "name": "BOGATYR",
          "callsign": "UBPW8",
          "categories": [
            "russian_mmsi"
          ],
          "source": "Fintraffic Digitraffic"
        },
        "infrastructure": {
          "type": "pipeline",
          "reference_id": "pipelines.3424",
          "name": "NORD STREAM 2",
          "source": "EMODnet Human Activities",
          "source_typename": "emodnet:pipelines"
        },
        "signals": [
          "critical_infrastructure_proximity",
          "low_speed_near_infrastructure",
          "repeated_entries_into_close_band",
          "voi_or_watchlist_context",
          "timestamp_quality_limited"
        ],
        "assessment": "Behaviour warrants analyst review. Proximity and movement patterns alone do not indicate hostile intent, attribution or unlawful activity.",
        "score_integration": false,
        "observation": {
          "event_position": {
            "latitude": 60.524422,
            "longitude": 28.154845,
            "observed_at": "2026-08-09T14:51:22+00:00"
          },
          "latest_position": {
            "latitude": 60.524772,
            "longitude": 28.155212,
            "observed_at": "2026-08-14T04:19:05+00:00"
          },
          "minimum_distance_nm": 0.371,
          "latest_distance_nm": 0.382,
          "track_points_considered": 11,
          "points_within_close_band": 7,
          "low_speed_points_within_close_band": 7,
          "estimated_dwell_minutes": 0.0,
          "close_band_entries": 2,
          "source_timestamp_points": 0,
          "fallback_timestamp_points": 7
        }
      }
    },
    {
      "type": "Feature",
      "geometry": {
        "type": "Point",
        "coordinates": [
          4.856268,
          60.620252
        ]
      },
      "properties": {
        "event_id": "VWI-257107000-pipelines.501",
        "event_type": "critical_infrastructure_proximity",
        "level": "review",
        "confidence": "medium",
        "vessel": {
          "mmsi": "257107000",
          "imo": "9210983",
          "name": "AJAX",
          "callsign": "LLEO",
          "categories": [
            "recent_russian_portcall_10d"
          ],
          "source": "BarentsWatch / Norwegian Coastal Administration"
        },
        "infrastructure": {
          "type": "pipeline",
          "reference_id": "pipelines.501",
          "name": "Vestprosess",
          "source": "EMODnet Human Activities",
          "source_typename": "emodnet:pipelines"
        },
        "signals": [
          "critical_infrastructure_proximity",
          "low_speed_near_infrastructure",
          "voi_or_watchlist_context"
        ],
        "assessment": "Behaviour warrants analyst review. Proximity and movement patterns alone do not indicate hostile intent, attribution or unlawful activity.",
        "score_integration": false,
        "observation": {
          "event_position": {
            "latitude": 60.620252,
            "longitude": 4.856268,
            "observed_at": "2026-08-14T04:17:55+00:00"
          },
          "latest_position": {
            "latitude": 60.620252,
            "longitude": 4.856268,
            "observed_at": "2026-08-14T04:17:55+00:00"
          },
          "minimum_distance_nm": 0.27,
          "latest_distance_nm": 0.27,
          "track_points_considered": 11,
          "points_within_close_band": 11,
          "low_speed_points_within_close_band": 11,
          "estimated_dwell_minutes": 0.0,
          "close_band_entries": 1,
          "source_timestamp_points": 11,
          "fallback_timestamp_points": 0
        }
      }
    },
    {
      "type": "Feature",
      "geometry": {
        "type": "Point",
        "coordinates": [
          23.553737,
          60.096302
        ]
      },
      "properties": {
        "event_id": "VWI-230931000-pipelines.3658",
        "event_type": "critical_infrastructure_proximity",
        "level": "review",
        "confidence": "low_medium",
        "vessel": {
          "mmsi": "230931000",
          "imo": "5400267",
          "name": "AJAX",
          "callsign": "OJGZ",
          "categories": [
            "recent_russian_portcall_10d"
          ],
          "source": "Fintraffic Digitraffic"
        },
        "infrastructure": {
          "type": "pipeline",
          "reference_id": "pipelines.3658",
          "name": "pipelines.3658",
          "source": "EMODnet Human Activities",
          "source_typename": "emodnet:pipelines"
        },
        "signals": [
          "critical_infrastructure_proximity",
          "low_speed_near_infrastructure",
          "voi_or_watchlist_context",
          "timestamp_quality_limited"
        ],
        "assessment": "Behaviour warrants analyst review. Proximity and movement patterns alone do not indicate hostile intent, attribution or unlawful activity.",
        "score_integration": false,
        "observation": {
          "event_position": {
            "latitude": 60.096302,
            "longitude": 23.553737,
            "observed_at": "2026-08-09T14:51:22+00:00"
          },
          "latest_position": {
            "latitude": 60.096357,
            "longitude": 23.553718,
            "observed_at": "2026-08-14T04:19:05+00:00"
          },
          "minimum_distance_nm": 0.308,
          "latest_distance_nm": 0.311,
          "track_points_considered": 11,
          "points_within_close_band": 11,
          "low_speed_points_within_close_band": 11,
          "estimated_dwell_minutes": 0.0,
          "close_band_entries": 1,
          "source_timestamp_points": 0,
          "fallback_timestamp_points": 11
        }
      }
    },
    {
      "type": "Feature",
      "geometry": {
        "type": "Point",
        "coordinates": [
          4.856362,
          60.620278
        ]
      },
      "properties": {
        "event_id": "VWI-257107000-pcablesnve.150",
        "event_type": "critical_infrastructure_proximity",
        "level": "review",
        "confidence": "medium",
        "vessel": {
          "mmsi": "257107000",
          "imo": "9210983",
          "name": "AJAX",
          "callsign": "LLEO",
          "categories": [
            "recent_russian_portcall_10d"
          ],
          "source": "BarentsWatch / Norwegian Coastal Administration"
        },
        "infrastructure": {
          "type": "power_cable",
          "reference_id": "pcablesnve.150",
          "name": "pcablesnve.150",
          "source": "EMODnet Human Activities",
          "source_typename": "emodnet:pcablesnve"
        },
        "signals": [
          "critical_infrastructure_proximity",
          "low_speed_near_infrastructure",
          "voi_or_watchlist_context"
        ],
        "assessment": "Behaviour warrants analyst review. Proximity and movement patterns alone do not indicate hostile intent, attribution or unlawful activity.",
        "score_integration": false,
        "observation": {
          "event_position": {
            "latitude": 60.620278,
            "longitude": 4.856362,
            "observed_at": "2026-08-09T14:50:44+00:00"
          },
          "latest_position": {
            "latitude": 60.620252,
            "longitude": 4.856268,
            "observed_at": "2026-08-14T04:17:55+00:00"
          },
          "minimum_distance_nm": 0.371,
          "latest_distance_nm": 0.375,
          "track_points_considered": 11,
          "points_within_close_band": 11,
          "low_speed_points_within_close_band": 11,
          "estimated_dwell_minutes": 0.0,
          "close_band_entries": 1,
          "source_timestamp_points": 11,
          "fallback_timestamp_points": 0
        }
      }
    },
    {
      "type": "Feature",
      "geometry": {
        "type": "Point",
        "coordinates": [
          4.85626,
          60.620255
        ]
      },
      "properties": {
        "event_id": "VWI-257107000-pipelines.541",
        "event_type": "critical_infrastructure_proximity",
        "level": "review",
        "confidence": "medium",
        "vessel": {
          "mmsi": "257107000",
          "imo": "9210983",
          "name": "AJAX",
          "callsign": "LLEO",
          "categories": [
            "recent_russian_portcall_10d"
          ],
          "source": "BarentsWatch / Norwegian Coastal Administration"
        },
        "infrastructure": {
          "type": "pipeline",
          "reference_id": "pipelines.541",
          "name": "Vestprosess",
          "source": "EMODnet Human Activities",
          "source_typename": "emodnet:pipelines"
        },
        "signals": [
          "critical_infrastructure_proximity",
          "low_speed_near_infrastructure",
          "voi_or_watchlist_context"
        ],
        "assessment": "Behaviour warrants analyst review. Proximity and movement patterns alone do not indicate hostile intent, attribution or unlawful activity.",
        "score_integration": false,
        "observation": {
          "event_position": {
            "latitude": 60.620255,
            "longitude": 4.85626,
            "observed_at": "2026-08-13T15:11:54+00:00"
          },
          "latest_position": {
            "latitude": 60.620252,
            "longitude": 4.856268,
            "observed_at": "2026-08-14T04:17:55+00:00"
          },
          "minimum_distance_nm": 0.377,
          "latest_distance_nm": 0.377,
          "track_points_considered": 11,
          "points_within_close_band": 11,
          "low_speed_points_within_close_band": 11,
          "estimated_dwell_minutes": 0.0,
          "close_band_entries": 1,
          "source_timestamp_points": 11,
          "fallback_timestamp_points": 0
        }
      }
    },
    {
      "type": "Feature",
      "geometry": {
        "type": "Point",
        "coordinates": [
          24.928448,
          60.16025
        ]
      },
      "properties": {
        "event_id": "VWI-230047000-pipelines.3472",
        "event_type": "critical_infrastructure_proximity",
        "level": "review",
        "confidence": "low_medium",
        "vessel": {
          "mmsi": "230047000",
          "imo": "9974864",
          "name": "AJAX",
          "callsign": "OJVF",
          "categories": [
            "recent_russian_portcall_10d"
          ],
          "source": "Fintraffic Digitraffic"
        },
        "infrastructure": {
          "type": "pipeline",
          "reference_id": "pipelines.3472",
          "name": "pipelines.3472",
          "source": "EMODnet Human Activities",
          "source_typename": "emodnet:pipelines"
        },
        "signals": [
          "critical_infrastructure_proximity",
          "low_speed_near_infrastructure",
          "voi_or_watchlist_context",
          "timestamp_quality_limited"
        ],
        "assessment": "Behaviour warrants analyst review. Proximity and movement patterns alone do not indicate hostile intent, attribution or unlawful activity.",
        "score_integration": false,
        "observation": {
          "event_position": {
            "latitude": 60.16025,
            "longitude": 24.928448,
            "observed_at": "2026-08-09T14:51:22+00:00"
          },
          "latest_position": {
            "latitude": 60.160272,
            "longitude": 24.928448,
            "observed_at": "2026-08-14T04:19:05+00:00"
          },
          "minimum_distance_nm": 0.435,
          "latest_distance_nm": 0.436,
          "track_points_considered": 11,
          "points_within_close_band": 11,
          "low_speed_points_within_close_band": 11,
          "estimated_dwell_minutes": 0.0,
          "close_band_entries": 1,
          "source_timestamp_points": 0,
          "fallback_timestamp_points": 11
        }
      }
    },
    {
      "type": "Feature",
      "geometry": {
        "type": "Point",
        "coordinates": [
          24.928448,
          60.16025
        ]
      },
      "properties": {
        "event_id": "VWI-230047000-pipelines.3609",
        "event_type": "critical_infrastructure_proximity",
        "level": "review",
        "confidence": "low_medium",
        "vessel": {
          "mmsi": "230047000",
          "imo": "9974864",
          "name": "AJAX",
          "callsign": "OJVF",
          "categories": [
            "recent_russian_portcall_10d"
          ],
          "source": "Fintraffic Digitraffic"
        },
        "infrastructure": {
          "type": "pipeline",
          "reference_id": "pipelines.3609",
          "name": "pipelines.3609",
          "source": "EMODnet Human Activities",
          "source_typename": "emodnet:pipelines"
        },
        "signals": [
          "critical_infrastructure_proximity",
          "low_speed_near_infrastructure",
          "voi_or_watchlist_context",
          "timestamp_quality_limited"
        ],
        "assessment": "Behaviour warrants analyst review. Proximity and movement patterns alone do not indicate hostile intent, attribution or unlawful activity.",
        "score_integration": false,
        "observation": {
          "event_position": {
            "latitude": 60.16025,
            "longitude": 24.928448,
            "observed_at": "2026-08-09T14:51:22+00:00"
          },
          "latest_position": {
            "latitude": 60.160272,
            "longitude": 24.928448,
            "observed_at": "2026-08-14T04:19:05+00:00"
          },
          "minimum_distance_nm": 0.435,
          "latest_distance_nm": 0.436,
          "track_points_considered": 11,
          "points_within_close_band": 11,
          "low_speed_points_within_close_band": 11,
          "estimated_dwell_minutes": 0.0,
          "close_band_entries": 1,
          "source_timestamp_points": 0,
          "fallback_timestamp_points": 11
        }
      }
    },
    {
      "type": "Feature",
      "geometry": {
        "type": "Point",
        "coordinates": [
          24.922422,
          60.160782
        ]
      },
      "properties": {
        "event_id": "VWI-230992650-pipelines.3481",
        "event_type": "critical_infrastructure_proximity",
        "level": "review",
        "confidence": "low_medium",
        "vessel": {
          "mmsi": "230992650",
          "imo": "0",
          "name": "URSUS",
          "callsign": "OIRM",
          "categories": [
            "recent_russian_portcall_10d"
          ],
          "source": "Fintraffic Digitraffic"
        },
        "infrastructure": {
          "type": "pipeline",
          "reference_id": "pipelines.3481",
          "name": "pipelines.3481",
          "source": "EMODnet Human Activities",
          "source_typename": "emodnet:pipelines"
        },
        "signals": [
          "critical_infrastructure_proximity",
          "low_speed_near_infrastructure",
          "voi_or_watchlist_context",
          "timestamp_quality_limited"
        ],
        "assessment": "Behaviour warrants analyst review. Proximity and movement patterns alone do not indicate hostile intent, attribution or unlawful activity.",
        "score_integration": false,
        "observation": {
          "event_position": {
            "latitude": 60.160782,
            "longitude": 24.922422,
            "observed_at": "2026-08-12T15:13:49+00:00"
          },
          "latest_position": {
            "latitude": 60.160782,
            "longitude": 24.922465,
            "observed_at": "2026-08-14T04:19:05+00:00"
          },
          "minimum_distance_nm": 0.439,
          "latest_distance_nm": 0.439,
          "track_points_considered": 11,
          "points_within_close_band": 11,
          "low_speed_points_within_close_band": 11,
          "estimated_dwell_minutes": 0.0,
          "close_band_entries": 1,
          "source_timestamp_points": 0,
          "fallback_timestamp_points": 11
        }
      }
    },
    {
      "type": "Feature",
      "geometry": {
        "type": "Point",
        "coordinates": [
          24.928448,
          60.16025
        ]
      },
      "properties": {
        "event_id": "VWI-230047000-pipelines.3481",
        "event_type": "critical_infrastructure_proximity",
        "level": "review",
        "confidence": "low_medium",
        "vessel": {
          "mmsi": "230047000",
          "imo": "9974864",
          "name": "AJAX",
          "callsign": "OJVF",
          "categories": [
            "recent_russian_portcall_10d"
          ],
          "source": "Fintraffic Digitraffic"
        },
        "infrastructure": {
          "type": "pipeline",
          "reference_id": "pipelines.3481",
          "name": "pipelines.3481",
          "source": "EMODnet Human Activities",
          "source_typename": "emodnet:pipelines"
        },
        "signals": [
          "critical_infrastructure_proximity",
          "low_speed_near_infrastructure",
          "voi_or_watchlist_context",
          "timestamp_quality_limited"
        ],
        "assessment": "Behaviour warrants analyst review. Proximity and movement patterns alone do not indicate hostile intent, attribution or unlawful activity.",
        "score_integration": false,
        "observation": {
          "event_position": {
            "latitude": 60.16025,
            "longitude": 24.928448,
            "observed_at": "2026-08-09T14:51:22+00:00"
          },
          "latest_position": {
            "latitude": 60.160272,
            "longitude": 24.928448,
            "observed_at": "2026-08-14T04:19:05+00:00"
          },
          "minimum_distance_nm": 0.458,
          "latest_distance_nm": 0.459,
          "track_points_considered": 11,
          "points_within_close_band": 11,
          "low_speed_points_within_close_band": 11,
          "estimated_dwell_minutes": 0.0,
          "close_band_entries": 1,
          "source_timestamp_points": 0,
          "fallback_timestamp_points": 11
        }
      }
    },
    {
      "type": "Feature",
      "geometry": {
        "type": "Point",
        "coordinates": [
          9.474122,
          63.568627
        ]
      },
      "properties": {
        "event_id": "VWI-257727700-pcablesnve.792",
        "event_type": "critical_infrastructure_proximity",
        "level": "review",
        "confidence": "medium",
        "vessel": {
          "mmsi": "257727700",
          "imo": "",
          "name": "AURORA",
          "callsign": "LK7531",
          "categories": [
            "recent_russian_portcall_10d"
          ],
          "source": "BarentsWatch / Norwegian Coastal Administration"
        },
        "infrastructure": {
          "type": "power_cable",
          "reference_id": "pcablesnve.792",
          "name": "pcablesnve.792",
          "source": "EMODnet Human Activities",
          "source_typename": "emodnet:pcablesnve"
        },
        "signals": [
          "critical_infrastructure_proximity",
          "low_speed_near_infrastructure",
          "voi_or_watchlist_context"
        ],
        "assessment": "Behaviour warrants analyst review. Proximity and movement patterns alone do not indicate hostile intent, attribution or unlawful activity.",
        "score_integration": false,
        "observation": {
          "event_position": {
            "latitude": 63.568627,
            "longitude": 9.474122,
            "observed_at": "2026-08-14T04:19:04+00:00"
          },
          "latest_position": {
            "latitude": 63.568627,
            "longitude": 9.474122,
            "observed_at": "2026-08-14T04:19:04+00:00"
          },
          "minimum_distance_nm": 0.481,
          "latest_distance_nm": 0.481,
          "track_points_considered": 11,
          "points_within_close_band": 11,
          "low_speed_points_within_close_band": 11,
          "estimated_dwell_minutes": 0.0,
          "close_band_entries": 1,
          "source_timestamp_points": 11,
          "fallback_timestamp_points": 0
        }
      }
    },
    {
      "type": "Feature",
      "geometry": {
        "type": "Point",
        "coordinates": [
          27.174957,
          60.532488
        ]
      },
      "properties": {
        "event_id": "VWI-304408000-pipelines.3534",
        "event_type": "critical_infrastructure_proximity",
        "level": "review",
        "confidence": "low_medium",
        "vessel": {
          "mmsi": "304408000",
          "imo": "9286712",
          "name": "LUCA",
          "callsign": "V2QX7",
          "categories": [
            "recent_russian_portcall_10d"
          ],
          "source": "Fintraffic Digitraffic"
        },
        "infrastructure": {
          "type": "pipeline",
          "reference_id": "pipelines.3534",
          "name": "pipelines.3534",
          "source": "EMODnet Human Activities",
          "source_typename": "emodnet:pipelines"
        },
        "signals": [
          "critical_infrastructure_proximity",
          "low_speed_near_infrastructure",
          "voi_or_watchlist_context",
          "timestamp_quality_limited"
        ],
        "assessment": "Behaviour warrants analyst review. Proximity and movement patterns alone do not indicate hostile intent, attribution or unlawful activity.",
        "score_integration": false,
        "observation": {
          "event_position": {
            "latitude": 60.532488,
            "longitude": 27.174957,
            "observed_at": "2026-08-12T15:13:49+00:00"
          },
          "latest_position": {
            "latitude": 60.170018,
            "longitude": 27.630672,
            "observed_at": "2026-08-09T03:52:31+00:00"
          },
          "minimum_distance_nm": 0.487,
          "latest_distance_nm": 25.276,
          "track_points_considered": 9,
          "points_within_close_band": 4,
          "low_speed_points_within_close_band": 4,
          "estimated_dwell_minutes": 0.0,
          "close_band_entries": 1,
          "source_timestamp_points": 0,
          "fallback_timestamp_points": 4
        }
      }
    },
    {
      "type": "Feature",
      "geometry": {
        "type": "Point",
        "coordinates": [
          27.174957,
          60.532488
        ]
      },
      "properties": {
        "event_id": "VWI-304408000-pipelines.3817",
        "event_type": "critical_infrastructure_proximity",
        "level": "review",
        "confidence": "low_medium",
        "vessel": {
          "mmsi": "304408000",
          "imo": "9286712",
          "name": "LUCA",
          "callsign": "V2QX7",
          "categories": [
            "recent_russian_portcall_10d"
          ],
          "source": "Fintraffic Digitraffic"
        },
        "infrastructure": {
          "type": "pipeline",
          "reference_id": "pipelines.3817",
          "name": "pipelines.3817",
          "source": "EMODnet Human Activities",
          "source_typename": "emodnet:pipelines"
        },
        "signals": [
          "critical_infrastructure_proximity",
          "low_speed_near_infrastructure",
          "voi_or_watchlist_context",
          "timestamp_quality_limited"
        ],
        "assessment": "Behaviour warrants analyst review. Proximity and movement patterns alone do not indicate hostile intent, attribution or unlawful activity.",
        "score_integration": false,
        "observation": {
          "event_position": {
            "latitude": 60.532488,
            "longitude": 27.174957,
            "observed_at": "2026-08-12T15:13:49+00:00"
          },
          "latest_position": {
            "latitude": 60.170018,
            "longitude": 27.630672,
            "observed_at": "2026-08-09T03:52:31+00:00"
          },
          "minimum_distance_nm": 0.506,
          "latest_distance_nm": 26.015,
          "track_points_considered": 9,
          "points_within_close_band": 4,
          "low_speed_points_within_close_band": 4,
          "estimated_dwell_minutes": 0.0,
          "close_band_entries": 1,
          "source_timestamp_points": 0,
          "fallback_timestamp_points": 4
        }
      }
    },
    {
      "type": "Feature",
      "geometry": {
        "type": "Point",
        "coordinates": [
          30.07616,
          69.729353
        ]
      },
      "properties": {
        "event_id": "VWI-273457870-pcablesnve.734",
        "event_type": "critical_infrastructure_proximity",
        "level": "review",
        "confidence": "medium",
        "vessel": {
          "mmsi": "273457870",
          "imo": "8520769",
          "name": "PROEKT",
          "callsign": "UHYS",
          "categories": [
            "russian_mmsi"
          ],
          "source": "BarentsWatch / Norwegian Coastal Administration"
        },
        "infrastructure": {
          "type": "power_cable",
          "reference_id": "pcablesnve.734",
          "name": "pcablesnve.734",
          "source": "EMODnet Human Activities",
          "source_typename": "emodnet:pcablesnve"
        },
        "signals": [
          "critical_infrastructure_proximity",
          "low_speed_near_infrastructure",
          "voi_or_watchlist_context"
        ],
        "assessment": "Behaviour warrants analyst review. Proximity and movement patterns alone do not indicate hostile intent, attribution or unlawful activity.",
        "score_integration": false,
        "observation": {
          "event_position": {
            "latitude": 69.729353,
            "longitude": 30.07616,
            "observed_at": "2026-08-10T15:15:04+00:00"
          },
          "latest_position": {
            "latitude": 70.40867,
            "longitude": 32.130765,
            "observed_at": "2026-08-14T04:19:02+00:00"
          },
          "minimum_distance_nm": 0.521,
          "latest_distance_nm": 57.87,
          "track_points_considered": 11,
          "points_within_close_band": 4,
          "low_speed_points_within_close_band": 4,
          "estimated_dwell_minutes": 0.0,
          "close_band_entries": 1,
          "source_timestamp_points": 4,
          "fallback_timestamp_points": 0
        }
      }
    },
    {
      "type": "Feature",
      "geometry": {
        "type": "Point",
        "coordinates": [
          30.075988,
          69.729392
        ]
      },
      "properties": {
        "event_id": "VWI-273291510-pcablesnve.734",
        "event_type": "critical_infrastructure_proximity",
        "level": "review",
        "confidence": "low_medium",
        "vessel": {
          "mmsi": "273291510",
          "imo": "9836165",
          "name": "NORVEZHSKOE MORE",
          "callsign": "UBIV7",
          "categories": [
            "russian_mmsi"
          ],
          "source": "BarentsWatch / Norwegian Coastal Administration"
        },
        "infrastructure": {
          "type": "power_cable",
          "reference_id": "pcablesnve.734",
          "name": "pcablesnve.734",
          "source": "EMODnet Human Activities",
          "source_typename": "emodnet:pcablesnve"
        },
        "signals": [
          "critical_infrastructure_proximity",
          "low_speed_near_infrastructure",
          "voi_or_watchlist_context"
        ],
        "assessment": "Behaviour warrants analyst review. Proximity and movement patterns alone do not indicate hostile intent, attribution or unlawful activity.",
        "score_integration": false,
        "observation": {
          "event_position": {
            "latitude": 69.729392,
            "longitude": 30.075988,
            "observed_at": "2026-08-12T15:13:34+00:00"
          },
          "latest_position": {
            "latitude": 70.143467,
            "longitude": 31.584147,
            "observed_at": "2026-08-13T16:05:44+00:00"
          },
          "minimum_distance_nm": 0.525,
          "latest_distance_nm": 39.037,
          "track_points_considered": 11,
          "points_within_close_band": 2,
          "low_speed_points_within_close_band": 2,
          "estimated_dwell_minutes": 0.0,
          "close_band_entries": 1,
          "source_timestamp_points": 2,
          "fallback_timestamp_points": 0
        }
      }
    },
    {
      "type": "Feature",
      "geometry": {
        "type": "Point",
        "coordinates": [
          26.03568,
          59.876847
        ]
      },
      "properties": {
        "event_id": "VWI-273127020-pipelines.3424",
        "event_type": "critical_infrastructure_proximity",
        "level": "review",
        "confidence": "low_medium",
        "vessel": {
          "mmsi": "273127020",
          "imo": "9299733",
          "name": "MALAKHIT",
          "callsign": "UAEG3",
          "categories": [
            "russian_mmsi",
            "sanctions_shadowfleet",
            "watchlist"
          ],
          "source": "Fintraffic Digitraffic"
        },
        "infrastructure": {
          "type": "pipeline",
          "reference_id": "pipelines.3424",
          "name": "NORD STREAM 2",
          "source": "EMODnet Human Activities",
          "source_typename": "emodnet:pipelines"
        },
        "signals": [
          "critical_infrastructure_proximity",
          "low_speed_near_infrastructure",
          "voi_or_watchlist_context",
          "timestamp_quality_limited"
        ],
        "assessment": "Behaviour warrants analyst review. Proximity and movement patterns alone do not indicate hostile intent, attribution or unlawful activity.",
        "score_integration": false,
        "observation": {
          "event_position": {
            "latitude": 59.876847,
            "longitude": 26.03568,
            "observed_at": "2026-08-10T15:15:52+00:00"
          },
          "latest_position": {
            "latitude": 60.090593,
            "longitude": 29.370127,
            "observed_at": "2026-08-14T04:19:05+00:00"
          },
          "minimum_distance_nm": 0.526,
          "latest_distance_nm": 42.143,
          "track_points_considered": 10,
          "points_within_close_band": 5,
          "low_speed_points_within_close_band": 4,
          "estimated_dwell_minutes": 0.0,
          "close_band_entries": 1,
          "source_timestamp_points": 0,
          "fallback_timestamp_points": 5
        }
      }
    },
    {
      "type": "Feature",
      "geometry": {
        "type": "Point",
        "coordinates": [
          26.073413,
          59.88615
        ]
      },
      "properties": {
        "event_id": "VWI-668116291-pipelines.3424",
        "event_type": "critical_infrastructure_proximity",
        "level": "review",
        "confidence": "low_medium",
        "vessel": {
          "mmsi": "668116291",
          "imo": "9258351",
          "name": "AURORA",
          "callsign": "S9A3091",
          "categories": [
            "recent_russian_portcall_10d"
          ],
          "source": "Fintraffic Digitraffic"
        },
        "infrastructure": {
          "type": "pipeline",
          "reference_id": "pipelines.3424",
          "name": "NORD STREAM 2",
          "source": "EMODnet Human Activities",
          "source_typename": "emodnet:pipelines"
        },
        "signals": [
          "critical_infrastructure_proximity",
          "low_speed_near_infrastructure",
          "voi_or_watchlist_context",
          "timestamp_quality_limited"
        ],
        "assessment": "Behaviour warrants analyst review. Proximity and movement patterns alone do not indicate hostile intent, attribution or unlawful activity.",
        "score_integration": false,
        "observation": {
          "event_position": {
            "latitude": 59.88615,
            "longitude": 26.073413,
            "observed_at": "2026-08-10T15:15:52+00:00"
          },
          "latest_position": {
            "latitude": 56.820695,
            "longitude": 19.203153,
            "observed_at": "2026-08-14T04:19:05+00:00"
          },
          "minimum_distance_nm": 0.543,
          "latest_distance_nm": 3.755,
          "track_points_considered": 11,
          "points_within_close_band": 8,
          "low_speed_points_within_close_band": 8,
          "estimated_dwell_minutes": 0.0,
          "close_band_entries": 1,
          "source_timestamp_points": 0,
          "fallback_timestamp_points": 8
        }
      }
    },
    {
      "type": "Feature",
      "geometry": {
        "type": "Point",
        "coordinates": [
          24.922465,
          60.160782
        ]
      },
      "properties": {
        "event_id": "VWI-230992650-pipelines.3609",
        "event_type": "critical_infrastructure_proximity",
        "level": "review",
        "confidence": "low_medium",
        "vessel": {
          "mmsi": "230992650",
          "imo": "0",
          "name": "URSUS",
          "callsign": "OIRM",
          "categories": [
            "recent_russian_portcall_10d"
          ],
          "source": "Fintraffic Digitraffic"
        },
        "infrastructure": {
          "type": "pipeline",
          "reference_id": "pipelines.3609",
          "name": "pipelines.3609",
          "source": "EMODnet Human Activities",
          "source_typename": "emodnet:pipelines"
        },
        "signals": [
          "critical_infrastructure_proximity",
          "low_speed_near_infrastructure",
          "voi_or_watchlist_context",
          "timestamp_quality_limited"
        ],
        "assessment": "Behaviour warrants analyst review. Proximity and movement patterns alone do not indicate hostile intent, attribution or unlawful activity.",
        "score_integration": false,
        "observation": {
          "event_position": {
            "latitude": 60.160782,
            "longitude": 24.922465,
            "observed_at": "2026-08-14T04:19:05+00:00"
          },
          "latest_position": {
            "latitude": 60.160782,
            "longitude": 24.922465,
            "observed_at": "2026-08-14T04:19:05+00:00"
          },
          "minimum_distance_nm": 0.556,
          "latest_distance_nm": 0.556,
          "track_points_considered": 11,
          "points_within_close_band": 11,
          "low_speed_points_within_close_band": 11,
          "estimated_dwell_minutes": 0.0,
          "close_band_entries": 1,
          "source_timestamp_points": 0,
          "fallback_timestamp_points": 11
        }
      }
    },
    {
      "type": "Feature",
      "geometry": {
        "type": "Point",
        "coordinates": [
          24.922388,
          60.160807
        ]
      },
      "properties": {
        "event_id": "VWI-230992650-pipelines.3530",
        "event_type": "critical_infrastructure_proximity",
        "level": "review",
        "confidence": "low_medium",
        "vessel": {
          "mmsi": "230992650",
          "imo": "0",
          "name": "URSUS",
          "callsign": "OIRM",
          "categories": [
            "recent_russian_portcall_10d"
          ],
          "source": "Fintraffic Digitraffic"
        },
        "infrastructure": {
          "type": "pipeline",
          "reference_id": "pipelines.3530",
          "name": "pipelines.3530",
          "source": "EMODnet Human Activities",
          "source_typename": "emodnet:pipelines"
        },
        "signals": [
          "critical_infrastructure_proximity",
          "low_speed_near_infrastructure",
          "voi_or_watchlist_context",
          "timestamp_quality_limited"
        ],
        "assessment": "Behaviour warrants analyst review. Proximity and movement patterns alone do not indicate hostile intent, attribution or unlawful activity.",
        "score_integration": false,
        "observation": {
          "event_position": {
            "latitude": 60.160807,
            "longitude": 24.922388,
            "observed_at": "2026-08-13T15:14:07+00:00"
          },
          "latest_position": {
            "latitude": 60.160782,
            "longitude": 24.922465,
            "observed_at": "2026-08-14T04:19:05+00:00"
          },
          "minimum_distance_nm": 0.557,
          "latest_distance_nm": 0.559,
          "track_points_considered": 11,
          "points_within_close_band": 11,
          "low_speed_points_within_close_band": 11,
          "estimated_dwell_minutes": 0.0,
          "close_band_entries": 1,
          "source_timestamp_points": 0,
          "fallback_timestamp_points": 11
        }
      }
    },
    {
      "type": "Feature",
      "geometry": {
        "type": "Point",
        "coordinates": [
          27.16962,
          60.52634
        ]
      },
      "properties": {
        "event_id": "VWI-304408000-pipelines.3546",
        "event_type": "critical_infrastructure_proximity",
        "level": "review",
        "confidence": "low_medium",
        "vessel": {
          "mmsi": "304408000",
          "imo": "9286712",
          "name": "LUCA",
          "callsign": "V2QX7",
          "categories": [
            "recent_russian_portcall_10d"
          ],
          "source": "Fintraffic Digitraffic"
        },
        "infrastructure": {
          "type": "pipeline",
          "reference_id": "pipelines.3546",
          "name": "pipelines.3546",
          "source": "EMODnet Human Activities",
          "source_typename": "emodnet:pipelines"
        },
        "signals": [
          "critical_infrastructure_proximity",
          "low_speed_near_infrastructure",
          "voi_or_watchlist_context",
          "timestamp_quality_limited"
        ],
        "assessment": "Behaviour warrants analyst review. Proximity and movement patterns alone do not indicate hostile intent, attribution or unlawful activity.",
        "score_integration": false,
        "observation": {
          "event_position": {
            "latitude": 60.52634,
            "longitude": 27.16962,
            "observed_at": "2026-08-11T15:16:25+00:00"
          },
          "latest_position": {
            "latitude": 60.170018,
            "longitude": 27.630672,
            "observed_at": "2026-08-09T03:52:31+00:00"
          },
          "minimum_distance_nm": 0.697,
          "latest_distance_nm": 26.037,
          "track_points_considered": 9,
          "points_within_close_band": 4,
          "low_speed_points_within_close_band": 4,
          "estimated_dwell_minutes": 0.0,
          "close_band_entries": 1,
          "source_timestamp_points": 0,
          "fallback_timestamp_points": 4
        }
      }
    }
  ],
  "metadata": {
    "schema_version": "1.0.0",
    "generated_at": "2026-08-14T04:31:55+00:00",
    "source": "Voodoo Whiskers",
    "reference_source": "EMODnet Human Activities",
    "score_integration": false,
    "analysis_window_hours": 120,
    "reference_ready": true,
    "reference_feature_counts": {
      "telecommunication_cable": 28,
      "power_cable": 1044,
      "cable_landing": 0,
      "pipeline": 3924,
      "wind_farm": 826,
      "offshore_energy": 222
    },
    "event_count": 29,
    "assessment_limit": "Proximity and movement patterns are analyst leads and do not establish hostile intent, attribution or unlawful activity."
  }
}
