{
  "type": "FeatureCollection",
  "name": "Voodoo Whiskers common maritime snapshot query regions",
  "features": [
    {
      "type": "Feature",
      "properties": {
        "id": "german_bight_channel",
        "name": "German Bight and eastern Channel approaches",
        "note": "Broad operational query region; not a jurisdiction boundary."
      },
      "geometry": {
        "type": "Polygon",
        "coordinates": [[[-1.5,49.5],[10.0,49.5],[10.0,58.5],[-1.5,58.5],[-1.5,49.5]]]
      }
    },
    {
      "type": "Feature",
      "properties": {
        "id": "north_sea_norway",
        "name": "North Sea and Norwegian approaches",
        "note": "Broad operational query region; not a jurisdiction boundary."
      },
      "geometry": {
        "type": "Polygon",
        "coordinates": [[[-6.0,56.0],[14.5,56.0],[14.5,71.5],[-6.0,71.5],[-6.0,56.0]]]
      }
    },
    {
      "type": "Feature",
      "properties": {
        "id": "baltic_finland",
        "name": "Baltic Sea and Finnish approaches",
        "note": "Broad operational query region; not a jurisdiction boundary."
      },
      "geometry": {
        "type": "Polygon",
        "coordinates": [[[8.5,53.0],[31.5,53.0],[31.5,66.5],[8.5,66.5],[8.5,53.0]]]
      }
    }
  ]
}
