{
  "type": "FeatureCollection",
  "name": "Voodoo Whiskers GFW SAR query regions",
  "description": "Broad, editable operational query polygons. They are not legal maritime boundaries and may include land or adjacent waters.",
  "features": [
    {
      "type": "Feature",
      "properties": {
        "id": "north_sea",
        "name": "North Sea and English Channel approaches",
        "note": "Broad operational query extent; not an EEZ or jurisdiction boundary."
      },
      "geometry": {
        "type": "Polygon",
        "coordinates": [[[-6.0, 49.0], [9.0, 49.0], [9.0, 62.0], [-6.0, 62.0], [-6.0, 49.0]]]
      }
    },
    {
      "type": "Feature",
      "properties": {
        "id": "baltic_sea",
        "name": "Baltic Sea, Danish Straits and Gulf of Finland",
        "note": "Broad operational query extent; meets the North Sea query extent at 9°E and may include land."
      },
      "geometry": {
        "type": "Polygon",
        "coordinates": [[[9.0, 53.0], [31.5, 53.0], [31.5, 66.0], [9.0, 66.0], [9.0, 53.0]]]
      }
    }
  ]
}
