{"type":"FeatureCollection","features":[{"type":"Feature","geometry":{"type":"LineString","coordinates":[[6.0817,55.45545],[6.12879,55.34018],[6.13385,55.33529],[6.13878,55.33349],[6.14526,55.33266],[6.27566,55.33267],[6.28295,55.33143],[6.28661,55.33001],[6.31938,55.30797],[6.66091,55.11516],[6.66753,55.11308],[6.79443,55.11038],[7.23311,55.09649],[7.62729,55.08285],[7.63487,55.0805],[7.65756,55.06313],[7.66093,55.06168],[7.66515,55.06114],[7.96531,55.06598],[8.16743,55.06095],[8.1739,55.05985],[8.24868,55.05768],[8.26229,55.05564],[8.26504,55.05726],[8.28673,55.05198],[8.29868,55.05018],[8.34868,55.04601],[8.37835,55.04228],[8.38568,55.03736]]},"properties":{"name_":"Atlantic Crossing 1A (AC 1A)","status":"inUse","uuid":"0021f8af-ca60-4402-9f5f-27a299ed3178","featureid":682,"_vw_layer":"telecom_cables_actual","_emodnet_typename":"emodnet:bshcontiscables","_emodnet_title":"Telecommunication Cables - DE BSH-CONTIS"},"id":"bshcontiscables.1"},{"type":"Feature","geometry":{"type":"LineString","coordinates":[[7.28258,53.66845],[7.2757,53.7257],[7.26267,53.7255],[7.2018,53.7533],[7.18792,53.76887],[7.18055,53.78188],[7.06241,53.81021],[7.04947,53.81628],[7.03025,53.84182],[7.02977,53.8463],[6.95506,53.94472],[6.41702,53.90662],[6.33118,53.93905],[6.20256,53.93577],[6.18463,53.93065],[6.16033,53.92722],[6.14769,53.92639]]},"properties":{"name_":"SeaMeWe 3","status":"OutOfUse","uuid":"3e4f6663-c3e4-41ad-a750-55ea8c9dbca3","featureid":702,"_vw_layer":"telecom_cables_actual","_emodnet_typename":"emodnet:bshcontiscables","_emodnet_title":"Telecommunication Cables - DE BSH-CONTIS"},"id":"bshcontiscables.2"},{"type":"Feature","geometry":{"type":"MultiLineString","coordinates":[[[6.93752,53.99705],[6.72033,54.0923],[6.7138,54.09445],[6.66612,54.11627],[6.66607,54.17712],[6.66533,54.18563],[6.66618,54.19037],[6.66535,54.20142],[6.66502,54.2492],[6.56407,54.38237],[6.56392,54.38393],[6.56162,54.38722],[6.55807,54.39023],[6.53815,54.4148],[6.53232,54.41947],[6.53485,54.42013],[6.26903,54.76417],[6.11858,55.036],[6.08362,55.09765],[6.07878,55.10282],[6.08083,55.1032],[5.85789,55.49745]],[[7.27623,53.72062],[7.194,53.7967],[7.19183,53.80063],[7.08502,53.82135],[7.06325,53.86245],[7.06298,53.86445],[7.03202,53.92097],[7.02702,53.9253],[7.03003,53.92585],[7.00825,53.96562],[6.96972,53.98274]]]},"properties":{"name_":"TAT 10B","status":"OutOfUse","uuid":"a3a3bb93-90f6-40b1-a24e-d2fe46d0cddf","featureid":712,"_vw_layer":"telecom_cables_actual","_emodnet_typename":"emodnet:bshcontiscables","_emodnet_title":"Telecommunication Cables - DE BSH-CONTIS"},"id":"bshcontiscables.3"},{"type":"Feature","geometry":{"type":"LineString","coordinates":[[7.05152,53.68545],[6.95635,53.77602],[6.93802,53.78762],[6.93385,53.78878],[6.83118,53.77545],[6.80418,53.77295],[6.49417,53.73095],[6.35533,53.69678],[6.32892,53.6929]]},"properties":{"name_":"TAT 10D1","status":"inUse","uuid":"c042bc76-4f6c-40ab-be79-70e7ec94bca3","featureid":722,"_vw_layer":"telecom_cables_actual","_emodnet_typename":"emodnet:bshcontiscables","_emodnet_title":"Telecommunication Cables - DE BSH-CONTIS"},"id":"bshcontiscables.4"},{"type":"Feature","geometry":{"type":"LineString","coordinates":[[7.21858,53.65415],[7.21813,53.65508],[7.21953,53.65928],[7.20437,53.68262],[7.20858,53.70692],[7.20823,53.70873],[7.21072,53.71108],[7.20728,53.71892],[7.2071,53.72217],[7.16488,53.76475],[6.99107,53.77853],[6.84035,53.76762],[6.70617,53.75085],[6.70162,53.75125],[6.532,53.72928],[6.5005,53.72313],[6.49328,53.72493],[6.48533,53.73253],[6.4795,53.73412],[6.3538,53.70825],[6.32211,53.7053]]},"properties":{"name_":"TAT 14J","status":"OutOfUse","uuid":"f2d441d6-b337-41da-a272-cac833452ff6","featureid":742,"_vw_layer":"telecom_cables_actual","_emodnet_typename":"emodnet:bshcontiscables","_emodnet_title":"Telecommunication Cables - DE BSH-CONTIS"},"id":"bshcontiscables.5"},{"type":"Feature","geometry":{"type":"LineString","coordinates":[[6.59781,55.3586],[6.63723,55.1681],[6.6545,55.1255],[6.64857,55.11768],[6.6673,55.0406],[6.67332,54.99577],[6.68283,54.95097],[6.68432,54.93895],[6.68722,54.93192],[6.68825,54.92727],[6.6912,54.9221],[6.69083,54.90782],[6.69223,54.89722],[6.70338,54.87048],[6.72145,54.78093],[6.72348,54.76302],[6.726,54.75008],[6.82227,54.2646],[6.82938,54.12113],[6.83157,54.11648],[6.83545,54.1124],[7.0454,53.97928],[7.0472,53.97678],[7.04795,53.97412],[7.04725,53.9714],[7.03565,53.95693],[7.035,53.9542],[7.03567,53.95153],[7.08155,53.88825],[7.12683,53.8293],[7.12947,53.82703],[7.13708,53.82402],[7.14317,53.82403],[7.14743,53.82242],[7.21528,53.81193],[7.2195,53.81072],[7.22568,53.80673],[7.2409,53.78262],[7.23958,53.78225],[7.24128,53.78203],[7.24387,53.77777],[7.24597,53.77238],[7.27428,53.72407],[7.27858,53.71953],[7.27205,53.71573],[7.26927,53.71178],[7.26923,53.70237],[7.28087,53.67565],[7.28308,53.67282],[7.28247,53.66815]]},"properties":{"name_":"TAT 14N","status":"OutOfUse","uuid":"b89e4f22-bf4f-4473-a653-288281b1313d","featureid":752,"_vw_layer":"telecom_cables_actual","_emodnet_typename":"emodnet:bshcontiscables","_emodnet_title":"Telecommunication Cables - DE BSH-CONTIS"},"id":"bshcontiscables.6"},{"type":"Feature","geometry":{"type":"LineString","coordinates":[[6.13898,53.93693],[6.17684,53.94309],[6.17735,53.94408],[6.17968,53.94488],[6.21553,53.94763],[6.30234,53.94926],[6.30918,53.94993],[6.33569,53.94848],[6.38214,53.93141],[6.41086,53.91833],[6.42113,53.91678],[6.74702,53.94275],[6.75891,53.94303],[6.80651,53.94746],[6.89834,53.93146],[6.90819,53.92721],[6.93755,53.90597],[6.95894,53.88776],[6.99837,53.8346],[7.01856,53.81115],[7.02909,53.78983],[7.04266,53.75438],[7.05247,53.71843],[7.069,53.68622]]},"properties":{"name_":"UK-D 5","status":"OutOfUse","uuid":"fd3e98dc-da84-424b-acb3-1f18acedfdc8","featureid":762,"_vw_layer":"telecom_cables_actual","_emodnet_typename":"emodnet:bshcontiscables","_emodnet_title":"Telecommunication Cables - DE BSH-CONTIS"},"id":"bshcontiscables.7"},{"type":"Feature","geometry":{"type":"MultiLineString","coordinates":[[[6.92075,53.96913],[6.64987,53.94995],[6.47983,54.0499],[6.12383,54.08847],[6.03323,54.20495],[5.94365,54.21555],[5.92465,54.22852],[5.86419,54.2194]],[[7.28247,53.66816],[7.28307,53.67282],[7.28087,53.67566],[7.27658,53.68551],[7.27558,53.68603],[7.27593,53.68698],[7.27262,53.69436],[7.27265,53.69785],[7.26923,53.70236],[7.2695,53.70469],[7.27618,53.7114],[7.26927,53.71179],[7.27205,53.71573],[7.27531,53.71719],[7.27583,53.71843],[7.26668,53.7249],[7.19922,53.78155],[7.19865,53.78133],[7.19557,53.78557],[7.19088,53.79002],[7.18768,53.79173],[7.07502,53.81667],[7.0595,53.8412],[7.05748,53.85027],[7.0415,53.87553],[7.03335,53.88332],[6.99163,53.95],[6.93283,53.96998]]]},"properties":{"name_":"UK-D 6","status":"OutOfUse","uuid":"0c0d226c-f5c2-43e4-89d8-7214e239d2f1","featureid":772,"_vw_layer":"telecom_cables_actual","_emodnet_typename":"emodnet:bshcontiscables","_emodnet_title":"Telecommunication Cables - DE BSH-CONTIS"},"id":"bshcontiscables.8"},{"type":"Feature","geometry":{"type":"LineString","coordinates":[[8.37677,53.64673],[8.36942,53.63166],[8.37876,53.62114],[8.38589,53.61494],[8.39024,53.60984],[8.3935,53.60446],[8.39702,53.58852],[8.39666,53.58563],[8.3945,53.58423],[8.3877,53.57375]]},"properties":{"status":"Unknown","uuid":"a8421462-fd0c-467c-ad0f-3a741d3457b3","featureid":792,"_vw_layer":"telecom_cables_actual","_emodnet_typename":"emodnet:bshcontiscables","_emodnet_title":"Telecommunication Cables - DE BSH-CONTIS"},"id":"bshcontiscables.9"},{"type":"Feature","geometry":{"type":"LineString","coordinates":[[12.01498,54.39999],[12.02367,54.37905],[12.05215,54.37679],[12.05935,54.37585],[12.06058,54.37484],[12.10248,54.27272],[12.11751,54.23396],[12.12229,54.21685],[12.14177,54.19404]]},"properties":{"name_":"DK-G 3","status":"inUse","uuid":"681adaec-d9a0-456c-9343-d91be9b899d4","featureid":872,"_vw_layer":"telecom_cables_actual","_emodnet_typename":"emodnet:bshcontiscables","_emodnet_title":"Telecommunication Cables - DE BSH-CONTIS"},"id":"bshcontiscables.10"},{"type":"Feature","geometry":{"type":"LineString","coordinates":[[11.27736,54.60023],[11.26723,54.58617],[11.24057,54.55452],[11.22478,54.53257],[11.22243,54.52812],[11.2153,54.51905],[11.21078,54.51077],[11.21857,54.50697],[11.22172,54.50412]]},"properties":{"name_":"NordicConnect","status":"OutOfUse","uuid":"31f38f6d-a58b-4c67-ae2a-9a47e185630a","featureid":882,"_vw_layer":"telecom_cables_actual","_emodnet_typename":"emodnet:bshcontiscables","_emodnet_title":"Telecommunication Cables - DE BSH-CONTIS"},"id":"bshcontiscables.11"},{"type":"Feature","geometry":{"type":"LineString","coordinates":[[12.04538,54.40837],[12.06644,54.37404],[12.07983,54.33905],[12.08039,54.33458],[12.0821,54.33023],[12.09079,54.313],[12.09348,54.30424],[12.10016,54.29137],[12.12841,54.21262],[12.14084,54.20015],[12.13941,54.19778],[12.14196,54.19551]]},"properties":{"name_":"KPN/QWest","status":"inUse","uuid":"30ff2270-9eaf-4f28-b0b6-8b6161546338","featureid":892,"_vw_layer":"telecom_cables_actual","_emodnet_typename":"emodnet:bshcontiscables","_emodnet_title":"Telecommunication Cables - DE BSH-CONTIS"},"id":"bshcontiscables.12"},{"type":"Feature","geometry":{"type":"LineString","coordinates":[[12.03856,54.40649],[12.08335,54.30828],[12.11915,54.2083],[12.13775,54.19628]]},"properties":{"name_":"Electra-GC1","status":"inUse","uuid":"463a7f31-c616-4c76-93d7-6779019f6066","featureid":902,"_vw_layer":"telecom_cables_actual","_emodnet_typename":"emodnet:bshcontiscables","_emodnet_title":"Telecommunication Cables - DE BSH-CONTIS"},"id":"bshcontiscables.13"},{"type":"Feature","geometry":{"type":"LineString","coordinates":[[5.91377,54.1989],[5.92992,54.20654],[5.94201,54.21099],[5.95497,54.21696],[6.25626,54.34215],[6.27935,54.35388],[6.29066,54.35643],[6.34381,54.35888],[6.36678,54.36293],[7.04864,54.5827],[7.11124,54.59934],[7.19869,54.62664],[7.68048,54.76861],[7.70343,54.77241],[8.07038,54.78267],[8.26122,54.82951],[8.28634,54.83034]]},"properties":{"name_":"Atlantic Crossing 2","status":"inUse","uuid":"02dee361-4681-4bf2-b89a-50da93bbf56e","featureid":912,"_vw_layer":"telecom_cables_actual","_emodnet_typename":"emodnet:bshcontiscables","_emodnet_title":"Telecommunication Cables - DE BSH-CONTIS"},"id":"bshcontiscables.14"},{"type":"Feature","geometry":{"type":"LineString","coordinates":[[8.33955,55.08256],[8.37804,55.06168],[8.39204,55.06168],[8.42204,55.05718],[8.46822,55.04718],[8.46289,55.03768],[8.44455,55.01885],[8.43955,55.01885]]},"properties":{"name_":"Cantat 3","status":"inUse","uuid":"7a6ec408-60b0-4f46-a84f-490248e3a31c","featureid":922,"_vw_layer":"telecom_cables_actual","_emodnet_typename":"emodnet:bshcontiscables","_emodnet_title":"Telecommunication Cables - DE BSH-CONTIS"},"id":"bshcontiscables.15"},{"type":"Feature","geometry":{"type":"MultiLineString","coordinates":[[[8.08637,55.10261],[8.05957,55.03281],[8.06007,55.02681],[8.05475,55.02014],[8.02559,54.94564],[8.02509,54.93214],[7.89663,54.63228],[7.90513,54.60911],[7.92547,54.54528],[8.03369,54.4447],[8.11838,54.34864],[8.15378,54.3321],[8.17728,54.27024],[8.14363,54.24594],[8.14513,54.2376],[8.05565,54.19027]],[[7.80949,54.24443],[7.61005,54.23539],[7.39818,54.23276],[7.35549,54.23199],[7.35294,54.23099],[7.35028,54.22589],[7.34519,54.19258],[7.33629,54.12478],[7.33801,54.11945],[7.31,53.93865],[7.28122,53.9114],[7.27695,53.81206],[7.27155,53.72239],[7.2734,53.71677]]]},"properties":{"name_":"DK-D 1","status":"OutOfUse","uuid":"916363d4-f516-4cba-a9dd-fe3d465dabb7","featureid":932,"_vw_layer":"telecom_cables_actual","_emodnet_typename":"emodnet:bshcontiscables","_emodnet_title":"Telecommunication Cables - DE BSH-CONTIS"},"id":"bshcontiscables.16"},{"type":"Feature","geometry":{"type":"LineString","coordinates":[[3.4193,55.91331],[3.42962,55.8349],[3.41467,55.71346]]},"properties":{"name_":"NorSeaCom (NSC) 1","status":"inUse","uuid":"4b5e1934-c431-4e53-a196-2efc6a4cfac3","featureid":952,"_vw_layer":"telecom_cables_actual","_emodnet_typename":"emodnet:bshcontiscables","_emodnet_title":"Telecommunication Cables - DE BSH-CONTIS"},"id":"bshcontiscables.17"},{"type":"Feature","geometry":{"type":"LineString","coordinates":[[7.27372,53.72429],[6.66537,54.11597],[5.85162,55.49863]]},"properties":{"name_":"UK-D 4","status":"OutOfUse","uuid":"93f8e9bf-2b17-44ff-b859-d3d1ea188d74","featureid":962,"_vw_layer":"telecom_cables_actual","_emodnet_typename":"emodnet:bshcontiscables","_emodnet_title":"Telecommunication Cables - DE BSH-CONTIS"},"id":"bshcontiscables.18"},{"type":"Feature","geometry":{"type":"LineString","coordinates":[[14.19891,53.93937],[14.21224,53.95104],[14.09057,54.07937],[14.11556,54.44071],[14.09722,54.45271],[14.09056,54.46188],[14.57917,54.58476]]},"properties":{"name_":"GK-22","status":"OutOfUse","uuid":"0d5d9917-d17c-40c6-830c-4c3852ab20ad","featureid":972,"_vw_layer":"telecom_cables_actual","_emodnet_typename":"emodnet:bshcontiscables","_emodnet_title":"Telecommunication Cables - DE BSH-CONTIS"},"id":"bshcontiscables.19"},{"type":"Feature","geometry":{"type":"LineString","coordinates":[[8.46551,55.08231],[8.29038,55.06602],[7.45703,54.68266],[6.79037,54.21597],[6.79037,54.12263],[6.20225,53.86033]]},"properties":{"name_":"DK-NL 4","status":"OutOfUse","uuid":"047a46c6-95dc-428e-ba93-e9474e9b9ec1","featureid":982,"_vw_layer":"telecom_cables_actual","_emodnet_typename":"emodnet:bshcontiscables","_emodnet_title":"Telecommunication Cables - DE BSH-CONTIS"},"id":"bshcontiscables.20"},{"type":"Feature","geometry":{"type":"LineString","coordinates":[[12.94713,54.8739],[13.87977,55.00663]]},"properties":{"status":"Unknown","uuid":"ef63836b-ff65-46bf-a437-0f7b876ccd29","featureid":992,"_vw_layer":"telecom_cables_actual","_emodnet_typename":"emodnet:bshcontiscables","_emodnet_title":"Telecommunication Cables - DE BSH-CONTIS"},"id":"bshcontiscables.21"},{"type":"Feature","geometry":{"type":"LineString","coordinates":[[11.21548,54.50436],[11.28111,54.59829]]},"properties":{"status":"Unknown","uuid":"67483dc8-a550-43c9-b706-71481770ab7b","featureid":1002,"_vw_layer":"telecom_cables_actual","_emodnet_typename":"emodnet:bshcontiscables","_emodnet_title":"Telecommunication Cables - DE BSH-CONTIS"},"id":"bshcontiscables.22"},{"type":"Feature","geometry":{"type":"LineString","coordinates":[[12.41745,54.69078],[12.6108,54.7357],[12.63145,54.74193],[12.6352,54.74134],[12.63943,54.74193],[12.66184,54.7469],[12.66871,54.74918],[12.98457,54.82369],[12.99352,54.82686],[13.00896,54.82727],[13.02256,54.83227],[13.15273,54.86166],[13.17393,54.86351],[13.17971,54.86035],[13.18836,54.86218],[13.42363,54.86544],[13.43095,54.86729],[13.43982,54.86737],[13.44875,54.86568],[13.49977,54.86631],[13.93107,54.78259],[13.93913,54.78234],[13.95245,54.77706],[13.96857,54.77655],[13.98188,54.77127],[13.998,54.77076],[14.00465,54.76812],[14.24461,54.72054],[14.31836,54.67558],[14.34284,54.66943],[14.41395,54.65474],[14.43683,54.65729]]},"properties":{"name_":"Baltica Segment 3","status":"inUse","uuid":"907c356b-565b-4052-bf95-b3ad001c759e","featureid":20412,"_vw_layer":"telecom_cables_actual","_emodnet_typename":"emodnet:bshcontiscables","_emodnet_title":"Telecommunication Cables - DE BSH-CONTIS"},"id":"bshcontiscables.23"},{"type":"Feature","geometry":{"type":"LineString","coordinates":[[7.79108,55.14564],[7.66713,55.08449],[7.65574,55.07756],[7.64291,55.07255],[7.49786,55.00057],[7.46719,54.98616],[7.42123,54.9623],[6.99862,54.74935],[6.53836,54.5236],[6.52348,54.51697],[6.5169,54.51201],[6.47219,54.4909],[6.34714,54.42858],[6.33248,54.42237],[6.3173,54.41368],[6.07316,54.2924],[6.00375,54.25611],[5.963,54.23729],[5.90053,54.20437]]},"properties":{"name_":"ODIN Segment 1","status":"OutOfUse","uuid":"8e729d6b-8dda-4df9-b30a-844a55ae3565","featureid":20422,"_vw_layer":"telecom_cables_actual","_emodnet_typename":"emodnet:bshcontiscables","_emodnet_title":"Telecommunication Cables - DE BSH-CONTIS"},"id":"bshcontiscables.24"},{"type":"Feature","geometry":{"type":"MultiLineString","coordinates":[[[13.23436,55.01983],[13.24175,54.97486],[13.24164,54.96651],[13.14863,54.88298],[13.08554,54.85821],[13.05865,54.84869],[12.68234,54.70646],[12.66986,54.70023],[12.38774,54.52226],[12.31327,54.45463],[12.2745,54.41555],[12.23983,54.38724],[12.22828,54.38292],[11.95756,54.38417]],[[11.63595,54.41428],[11.62308,54.41554],[11.56201,54.41705],[11.54667,54.4139],[11.53311,54.41276],[11.38025,54.45602],[11.29048,54.46824],[11.2739,54.47204],[11.25561,54.47834],[11.24512,54.47838]]]},"properties":{"name_":"SE-D 4","status":"OutOfUse","uuid":"07cc5533-fce6-477a-b387-49c9b5d7f38d","featureid":20432,"_vw_layer":"telecom_cables_actual","_emodnet_typename":"emodnet:bshcontiscables","_emodnet_title":"Telecommunication Cables - DE BSH-CONTIS"},"id":"bshcontiscables.25"},{"type":"Feature","geometry":{"type":"LineString","coordinates":[[12.37336,54.33244],[12.33439,54.35639],[12.33735,54.36426],[12.42673,54.47839],[12.4322,54.48674],[12.46133,54.53781],[12.47718,54.55315],[12.48677,54.56009],[12.70775,54.67214],[13.15218,54.85191],[13.17755,54.86225],[13.18916,54.86805],[13.35932,55.02405]]},"properties":{"name_":"SE-D 5","status":"OutOfUse","uuid":"a0e4fec5-e94f-4f75-ad01-0ed6f4393c72","featureid":20442,"_vw_layer":"telecom_cables_actual","_emodnet_typename":"emodnet:bshcontiscables","_emodnet_title":"Telecommunication Cables - DE BSH-CONTIS"},"id":"bshcontiscables.26"},{"type":"Feature","geometry":{"type":"MultiLineString","coordinates":[[[14.02134,54.94877],[13.69863,54.89231],[13.68735,54.88931],[13.67053,54.88747],[13.61325,54.88719],[13.59108,54.88486],[13.55384,54.87859],[13.52934,54.87676],[13.51977,54.87814],[13.51245,54.88124],[13.48387,54.90177],[13.47556,54.90647],[13.42859,54.94279],[13.41944,54.94648],[13.40935,54.94863],[13.38921,54.9502],[13.30121,54.94283],[13.09225,54.91352],[13.08711,54.91349],[13.06964,54.91588],[13.01993,54.9294]],[[12.05489,54.41099],[12.06587,54.39139],[12.07282,54.37538],[12.08302,54.34535],[12.08291,54.34376],[12.081,54.34143],[12.06727,54.3338],[12.06578,54.32936],[12.06683,54.32514],[12.07101,54.31411],[12.07415,54.30905],[12.10913,54.22065],[12.11876,54.20346],[12.12549,54.19903],[12.13535,54.1954]]]},"properties":{"name_":"C-Lion","status":"inUse","uuid":"c6169e9f-62be-4891-9fd4-3774b7b1f5a4","featureid":154662,"_vw_layer":"telecom_cables_actual","_emodnet_typename":"emodnet:bshcontiscables","_emodnet_title":"Telecommunication Cables - DE BSH-CONTIS"},"id":"bshcontiscables.27"},{"type":"Feature","geometry":{"type":"MultiLineString","coordinates":[[[14.0255,54.9338],[14.04504,54.93109]],[[13.63174,54.50735],[13.64031,54.50542],[13.68323,54.51491],[13.81028,54.59185],[13.8117,54.59381],[13.81197,54.59572],[13.80763,54.61884],[13.8396,54.68387],[13.84184,54.68999],[13.84498,54.69477],[13.86035,54.72589],[13.86412,54.72921],[13.91997,54.7595],[13.92061,54.76055],[13.92021,54.76763],[13.92583,54.77553],[13.94596,54.77825],[13.95199,54.7762],[13.95742,54.77605],[14.00452,54.78144],[14.02258,54.78476],[14.0252,54.78613],[14.02566,54.78805],[14.01255,54.82524],[14.0123,54.83221],[14.01063,54.83784],[14.00976,54.83861],[13.98057,54.92446],[13.9822,54.92578],[14.0255,54.9338]]]},"properties":{"name_":"Bornholm Subsea Cable","status":"Approved","uuid":"4c64782c-df65-4c30-bcb2-303d843eef3c","featureid":155162,"_vw_layer":"telecom_cables_actual","_emodnet_typename":"emodnet:bshcontiscables","_emodnet_title":"Telecommunication Cables - DE BSH-CONTIS"},"id":"bshcontiscables.28"}],"metadata":{"schema_version":"1.1.0","generated_at":"2026-08-10T02:39:07+00:00","layer_id":"telecom_cables_actual","source":"EMODnet Human Activities","service_url":"https://ows.emodnet-humanactivities.eu/wfs","attribution":"EMODnet Human Activities and original data providers","license_note":"Check the metadata of each source dataset; EMODnet products are commonly published under open terms with attribution.","bbox":[-6.0,50.0,32.0,72.5],"clipped_to_bbox":true,"simplify_tolerance_degrees":0.0005,"coordinate_precision":5,"geometry_accuracy_note":"Public display/analyst-lead geometry is clipped and topology-preserving simplified. It is not a navigational or engineering survey product.","property_policy":"Selected scalar identification/context fields only","raw_feature_count":28,"published_feature_count":28,"dropped_geometry_count":0,"duplicate_count":0,"feature_types":[{"type_name":"emodnet:bshcontiscables","title":"Telecommunication Cables - DE BSH-CONTIS","feature_count":28,"request_mode":"wfs2","pages":1},{"type_name":"emodnet:cicacables","title":"Telecommunication Cables - ES CICA","feature_count":0,"request_mode":"wfs2","pages":1},{"type_name":"emodnet:maltacables","title":"Telecommunication Cables - MT IOI-MOC","feature_count":0,"request_mode":"wfs2","pages":1}],"style":{"color":"#42d4f4","weight":2},"errors":[],"target_max_bytes":12582912,"hard_max_bytes":41943040,"size_attempts":[{"simplify_tolerance_degrees":0.0005,"feature_count":28,"output_bytes":20768}],"output_bytes":20939}}